[{"id": "19404", "phone": "(212) 683-3838", "name": "10 PARK PHARMACY, INC.", "zip": "10016", "address": "53 E. 34TH ST., NEW YORK,NY 10016"}, {"id": "28767", "phone": "(212) 865-0295", "name": "124 RX CORP.", "zip": "10027", "address": "157 WEST 124TH ST., NEW YORK,NY 10027"}, {"id": "27564", "phone": "(212) 491-4911", "name": "133RD STREET PHARMACY INC.", "zip": "10027", "address": "1473 AMSTERDAM AVE, STORE 1, NEW YORK,NY 10027"}, {"id": "15978", "phone": "(212) 283-6623", "name": "139 PHARMACY INC.", "zip": "10031", "address": "3415 BROADWAY, NEW YORK,NY 10031"}, {"id": "27656", "phone": "(212) 289-3665", "name": "1491 LEX PHARMACY INC.", "zip": "10029", "address": "1491 LEXINGTON AVENUE, NEW YORK,NY 10029"}, {"id": "29684", "phone": "(212) 234-1800", "name": "158 RX CORP.", "zip": "10032", "address": "11 EDWARD MORGAN PLACE, NEW YORK,NY 10032"}, {"id": "19989", "phone": "(212) 529-4532", "name": "1699 FANCY PHARMACY INC.", "zip": "10002", "address": "131 ESSEX ST., NEW YORK,NY 10002"}, {"id": "31604", "phone": "", "name": "1721 CARNEGIE HILL PHARMACY INC.", "zip": "10019", "address": "1721 BROADWAY, NEW YORK,NY 10019, "}, {"id": "25953", "phone": "(212) 543-2616", "name": "181 PHARMACY INC.", "zip": "10033", "address": "565 W. 181 ST. ST., NEW YORK,NY 10033"}, {"id": "28368", "phone": "(212) 410-0911", "name": "1875 LEXINGTON AVENUE CORP. OF NEW YORK", "zip": "10035", "address": "1875 LEXINGTON AVENUE, NEW YORK,NY 10035"}, {"id": "31805", "phone": "(212) 491-2910", "name": "2000 NINOS INC.", "zip": "10031", "address": "3663 BROADWAY, NEW YORK,NY 10031"}, {"id": "22880", "phone": "(212) 491-2910", "name": "2000 NINOS PHARMACY INC.", "zip": "10031", "address": "3663 BROADWAY, NEW YORK,NY 10031"}, {"id": "28194", "phone": "(212) 426-7151", "name": "2355 2ND AVE CORP.", "zip": "10022", "address": "2355 2ND AVENUE, NEW YORK,NY 10022"}, {"id": "15922", "phone": "(212) 362-9170", "name": "255 COLUMBUS AVENUE CORPORATION", "zip": "10023", "address": "255 COLUMBUS AVE., NEW YORK,NY 10023"}, {"id": "29811", "phone": "(646) 448-4848", "name": "27 AUDUBON PHARMACY CORP.", "zip": "10032", "address": "27 AUDUBON AVE, NEW YORK,NY 10032"}, {"id": "19014", "phone": "(212) 866-6700", "name": "27 BROADWAY DRUGS INC.", "zip": "10025", "address": "2721 BROADWAY, NEW YORK,NY 10025"}, {"id": "28317", "phone": "(212) 281-4881", "name": "3 W 137 PHARMACY &amp; MEDICAL SUPPLY  INC.", "zip": "10037", "address": "3 WEST 137 STREET, STORE 2, NEW YORK,NY 10037"}, {"id": "17397", "phone": "(212) 942-5050", "name": "3-9 DRUGS, INC.", "zip": "10040", "address": "102 NAGLE AVE., NEW YORK,NY 10040"}, {"id": "26599", "phone": "(212) 740-3737", "name": "311 PHARMACY CORP.", "zip": "10033", "address": "522 WEST 181ST STREET, NEW YORK,NY 10033"}, {"id": "27032", "phone": "(212) 926-9800", "name": "3340 BROADWAY PHARMACY #2 INC.", "zip": "10032", "address": "3621 BROADWAY, NEW YORK,NY 10032"}, {"id": "22629", "phone": "(212) 281-1270", "name": "3340 BROADWAY PHARMACY, INC.", "zip": "10031", "address": "3340 BROADWAY, NEW YORK,NY 10031"}, {"id": "28883", "phone": "(212) 684-8700", "name": "370 PHARMACY CORP.", "zip": "10017", "address": "370 LEXINGTON AVE., NEW YORK,NY 10017"}, {"id": "21013", "phone": "(212) 927-0220", "name": "3817 BROADWAY PHARMACY INC.", "zip": "10032", "address": "3835 BROADWAY, NEW YORK,NY 10032"}, {"id": "27458", "phone": "(212) 568-0975", "name": "3890 BROADWAY PHARMACY IV, INC", "zip": "10032", "address": "3898 BROADWAY, NEW YORK,NY 10032"}, {"id": "22924", "phone": "(212) 683-0148", "name": "420 2ND AVE DRUG CORP.", "zip": "10010", "address": "331 E. 23RD. ST., NEW YORK,NY 10010"}, {"id": "20261", "phone": "(212) 333-7330", "name": "58TH STREET PHARMACY, INC.", "zip": "10019", "address": "428 WEST 59TH STREET, NEW YORK,NY 10019"}, {"id": "22529", "phone": "(212) 304-3949", "name": "66 NAGLE AVENUE CORP.", "zip": "10040", "address": "66 NAGLE AVE., NEW YORK,NY 10040"}, {"id": "21082", "phone": "(212) 222-4400", "name": "731 PHARMACY CORP.", "zip": "10025", "address": "691 COLUMBUS AVENUE, NEW YORK,NY 10025"}, {"id": "31405", "phone": "", "name": "79TH STREET PHARMACY, INC.", "zip": "10024", "address": "215 WEST 79TH ST., NEW YORK,NY 10024, "}, {"id": "20292", "phone": "(212) 721-3883", "name": "82 COLUMBUS CORP.", "zip": "10024", "address": "463 COLUMBUS AVE., NEW YORK,NY 10024"}, {"id": "26359", "phone": "(212) 348-8900", "name": "88TH STREET DRUG CORP.", "zip": "10128", "address": "1695 FIRST AVE., NEW YORK,NY 10128"}, {"id": "29000", "phone": "(212) 222-6388", "name": "909 COLUMBUS RX CORP.", "zip": "10025", "address": "909 COLUMBUS AVE, NEW YORK,NY 10025"}, {"id": "25557", "phone": "(212) 426-6484", "name": "92 PHARMACY INC.", "zip": "10035", "address": "1938 SECOND AVENUE., NEW YORK,NY 10035"}, {"id": "13108", "phone": "(212) 734-6998", "name": "A. GOLDBERGER'S PRESCRIPTIONS SINCE 1898 INC.", "zip": "10065", "address": "1200 FIRST AVE., NEW YORK,NY 10065"}, {"id": "30883", "phone": "(212) 226-8832", "name": "A.M. PHARMACY II INC.", "zip": "10013", "address": "219 GRAND ST., NEW YORK,NY 10013"}, {"id": "18167", "phone": "(212) 677-7335", "name": "A.P.K.G. PHARMACY INC.", "zip": "10009", "address": "360 E. 4TH ST., NEW YORK,NY 10009"}, {"id": "21409", "phone": "(212) 875-1718", "name": "ABA NOUB, LTD.", "zip": "10023", "address": "216 WEST 72ND STREET, NEW YORK,NY 10023"}, {"id": "31022", "phone": "(212) 477-6400", "name": "ABACUS PHARMACY INC.", "zip": "10003", "address": "168 2ND AVENUE, NEW YORK,NY 10003"}, {"id": "30509", "phone": "(212) 965-8882", "name": "ABC PHARMACY V CORP.", "zip": "10002", "address": "26 E. BROADWAY, NEW YORK,NY 10002"}, {"id": "16867", "phone": "(212) 581-6010", "name": "AHORRE DRUG CORP.", "zip": "10019", "address": "746 10TH AVE, NEW YORK,NY 10019"}, {"id": "28867", "phone": "(212) 965-9688", "name": "AID PHARMACY (NY), CORP.", "zip": "10013", "address": "139 CENTRE STREET, STORE #108, NEW YORK,NY 10013"}, {"id": "18218", "phone": "(212) 283-6228", "name": "AJANTA PHARMACY INC.", "zip": "10030", "address": "2718 8TH AVE., NEW YORK,NY 10030"}, {"id": "26168", "phone": "(212) 222-2340", "name": "AKSHAR HEALTH CORP.", "zip": "10027", "address": "165 W. 127TH STREET, UNIT 10, NEW YORK,NY 10027"}, {"id": "22271", "phone": "(212) 227-7065", "name": "ALISONS PHARMACY, INC.", "zip": "10013", "address": "12 BOWERY STREET., NEW YORK,NY 10013"}, {"id": "25350", "phone": "(212) 431-4398", "name": "ALL HEALTH PHARMACY CORP.", "zip": "10013", "address": "118 MOTT ST., NEW YORK,NY 10013"}, {"id": "31800", "phone": "(212) 966-8287", "name": "ALLEN STREET PHARMACY INC.", "zip": "10002", "address": "2 ALLEN STREET, SUITE 1C/1D, NEW YORK,NY 10002"}, {"id": "18237", "phone": "(212) 567-6151", "name": "AMAR PHARMACY INC.", "zip": "10040", "address": "4446 BROADWAY, NEW YORK,NY 10040"}, {"id": "22847", "phone": "(212) 923-5733", "name": "AMI PHARMACY, INC.", "zip": "10033", "address": "4180 BROADWAY, NEW YORK,NY 10033"}, {"id": "26550", "phone": "(212) 368-5511", "name": "ANDY PHARMACY INC.", "zip": "10032", "address": "3750 BROADWAY, STORE #4, NEW YORK,NY 10032"}, {"id": "18307", "phone": "(212) 758-9614", "name": "APPLE DRUG INC.", "zip": "10021", "address": "1207 2ND AVE., NEW YORK,NY 10021"}, {"id": "3384", "phone": "(212) 245-8469", "name": "ARROW PHARMACY INC.", "zip": "10019", "address": "883 NINTH AVE., NEW YORK,NY 10019"}, {"id": "23723", "phone": "(718) 847-5997", "name": "ASTA SURGICAL-CHEMIST INC.", "zip": "11418", "address": "108-13 JAMAICA AVENUE, NEW YORK,NY 11418"}, {"id": "26548", "phone": "(212) 543-2937", "name": "AUDUBON PHARMACY INC.", "zip": "10032", "address": "85 AUDUBON AVENUE, NEW YORK,NY 10032"}, {"id": "28107", "phone": "(212) 260-3131", "name": "AVALON CHEMISTS INC.", "zip": "10003", "address": "7 SECOND AVE, NEW YORK,NY 10003"}, {"id": "29728", "phone": "(212) 260-3131", "name": "AVALON PHARMACY INC.", "zip": "10003", "address": "7 SECOND AVENUE, NEW YORK,NY 10003"}, {"id": "26385", "phone": "(212) 260-4878", "name": "AVENUE A PHARMACY INC.", "zip": "10009", "address": "41 AVENUE A, NEW YORK,NY 10009"}, {"id": "27398", "phone": "(212) 242-3033", "name": "AVIGNONE CHEMISTS, LTD", "zip": "10014", "address": "281 SIXTH AVENUE, NEW YORK,NY 10014"}, {"id": "22343", "phone": "(212) 534-1937", "name": "AVN PHARMACY INC.", "zip": "10035", "address": "2240 THIRD AVE., NEW YORK,NY 10035"}, {"id": "6599", "phone": "(212) 475-1144", "name": "B. EIDINGER AND SON DRUG CORPORATION", "zip": "10010", "address": "250 THIRD AVE., NEW YORK,NY 10010"}, {"id": "22154", "phone": "(212) 228-2260", "name": "B.N.D. PHARMACY INC.", "zip": "10003", "address": "277 FIRST AVE., NEW YORK,NY 10003"}, {"id": "17546", "phone": "(212) 249-1777", "name": "BARMED DRUGS INC.", "zip": "10021", "address": "1394 YORK AVE., NEW YORK,NY 10021"}, {"id": "17898", "phone": "(212) 912-0555", "name": "BATTERY PARK PHARMACY INC.", "zip": "10280", "address": "327 SOUTH END AVE., NEW YORK,NY 10280"}, {"id": "22079", "phone": "(212) 219-8116", "name": "BAYARD L.C. PHARMACY CORPORATION", "zip": "10013", "address": "62 BAYARD ST., NEW YORK,NY 10013"}, {"id": "26501", "phone": "(212) 717-7797", "name": "BBRX1 LLC", "zip": "10021", "address": "207 EAST 66TH STREET, NEW YORK,NY 10021"}, {"id": "27671", "phone": "(212) 741-7111", "name": "BBRX2 LLC", "zip": "10014", "address": "523 HUDSON STREET, NEW YORK,NY 10014"}, {"id": "29459", "phone": "(212) 766-1942", "name": "BEEKMAN PHARMACY, INC.", "zip": "10038", "address": "19 BEEKMAN STREET, NEW YORK,NY 10038"}, {"id": "31665", "phone": "(212) 234-0300", "name": "BELLEPLAINE PHARMACY INC.", "zip": "10030", "address": "2703 FREDERICK DOUGLAS, BLVD., NEW YORK,NY 10030"}, {"id": "20781", "phone": "(212) 334-0086", "name": "BEST CARE PHARMACY CORP.", "zip": "10002", "address": "28 EAST BROADWAY, NEW YORK,NY 10002"}, {"id": "30807", "phone": "(212) 410-4410", "name": "BEST PHARMACY INC.", "zip": "10029", "address": "2002 SECOND AVE., STORE 1, NEW YORK,NY 10029"}, {"id": "22379", "phone": "(212) 388-0340", "name": "BIOMED DRUGS AND SURGICAL SUPPLY CO. INC.", "zip": "10003", "address": "50 3RD AVE., NEW YORK,NY 10003"}, {"id": "25005", "phone": "(212) 691-9050", "name": "BIOSCRIP PHARMACY, INC.", "zip": "10011", "address": "197 8TH AVE., NEW YORK,NY 10011"}, {"id": "22143", "phone": "(212) 928-8082", "name": "BIRAJ PHARMACY CORP.", "zip": "10033", "address": "1280 ST. NICHOLAS AVE., NEW YORK,NY 10033"}, {"id": "18424", "phone": "(212) 427-4382", "name": "BLISS PHARMACY INC.", "zip": "10029", "address": "1590 MADISON AVENUE, NEW YORK,NY 10029"}, {"id": "14562", "phone": "(212) 690-1331", "name": "BOAN DRUGS INC.", "zip": "10031", "address": "1873 AMSTERDAM AVE., NEW YORK,NY 10031"}, {"id": "29176", "phone": "(212) 956-9111", "name": "BOWEN PHARMACY, INC.", "zip": "10019", "address": "881 TENTH AVE, NEW YORK,NY 10019"}, {"id": "18560", "phone": "(212) 219-0449", "name": "BOWERY PHARMACY, INC.", "zip": "10002", "address": "95 BOWERY, NEW YORK,NY 10002"}, {"id": "9990", "phone": "(212) 838-6765", "name": "BPB DRUGS, INC.", "zip": "10022", "address": "131 EAST 60TH ST., NEW YORK,NY 10022"}, {"id": "30375", "phone": "", "name": "BRENTWOOD PHARMACY LLC", "zip": "10011", "address": "48 WEST 8TH STREET, NEW YORK,NY 10011, "}, {"id": "18799", "phone": "(212) 781-6314", "name": "BRISELY PHARMACY, INC.", "zip": "10033", "address": "4229 BROADWAY, NEW YORK,NY 10033"}, {"id": "22384", "phone": "(212) 925-4888", "name": "BROADWAY DOWNTOWN PHARMACY, INC.", "zip": "10013", "address": "373 BROADWAY, NEW YORK,NY 10013"}, {"id": "27346", "phone": "(212) 927-0999", "name": "BROADWAY PHARMACY III, INC", "zip": "10033", "address": "629 WEST 185TH ST., NEW YORK,NY 10033"}, {"id": "29616", "phone": "(212) 942-1234", "name": "BROADWAY PHARMACY NYC, INC", "zip": "10040", "address": "4740 BROADWAY, NEW YORK,NY 10040"}, {"id": "12457", "phone": "(212) 369-4018", "name": "BUENA VISTA PHARMACY INC.", "zip": "10029", "address": "2022 THIRD AVE., NEW YORK,NY 10029"}, {"id": "21143", "phone": "(212) 925-7698", "name": "BUY-RITE CORP.", "zip": "10013", "address": "185 CANAL ST., NEW YORK,NY 10013"}, {"id": "25051", "phone": "(212) 543-1554", "name": "C &amp; C DRUG, INC.", "zip": "10032", "address": "1-7 AUDUBON AVE., NEW YORK,NY 10032"}, {"id": "3435", "phone": "(212) 533-2700", "name": "C.O. BIGELOW CHEMISTS, INC.", "zip": "10011", "address": "414 6TH AVE., NEW YORK,NY 10011"}, {"id": "25078", "phone": "(212) 369-6000", "name": "CALIGOR RX INC.", "zip": "10028", "address": "1226 LEXINGTON AVE., NEW YORK,NY 10028"}, {"id": "3484", "phone": "(212) 734-5678", "name": "CAMBRIDGE CHEMISTS INC.", "zip": "10021", "address": "855 LEXINGTON AVE., NEW YORK,NY 10021"}, {"id": "27630", "phone": "(212) 608-1668", "name": "CANAL PHARMACY INC.", "zip": "10013", "address": "196 CANAL STREET, NEW YORK,NY 10013"}, {"id": "28411", "phone": "(212) 748-4900", "name": "CANAL STREET PHARMACY INC.", "zip": "10013", "address": "210-212 CANAL STREET, NEW YORK,NY 10013"}, {"id": "26925", "phone": "(212) 619-6190", "name": "CANALBERRY CORP.", "zip": "10013", "address": "84 MULBERRY STREET, NEW YORK,NY 10013"}, {"id": "3491", "phone": "(212) 879-1258", "name": "CAPITOL CHEMISTS INC.", "zip": "10028", "address": "1639 FIRST AVE., NEW YORK,NY 10028"}, {"id": "25433", "phone": "(212) 369-1350", "name": "CARE WELL PHARMACY,INC.", "zip": "10029", "address": "1868 THIRD AVENUE, NEW YORK,NY 10029"}, {"id": "29812", "phone": "(212) 987-5494", "name": "CARNEGIE HILL CHEMISTS, INC.", "zip": "10128", "address": "1842 2ND AVE, NEW YORK,NY 10128"}, {"id": "29534", "phone": "(212) 534-1300", "name": "CARNEGIE HILL PHARMACY, INC.", "zip": "10128", "address": "1331 MADISON AVE., NEW YORK,NY 10128"}, {"id": "28255", "phone": "(212) 247-8080", "name": "CENTRAL PARK WEST ALACHEMISTS, INC.", "zip": "10023", "address": "25 CENTRAL PARK WEST, NEW YORK,NY 10023"}, {"id": "18497", "phone": "(212) 219-0750", "name": "CENTRAL PHARMACY CORP.", "zip": "10013", "address": "138 MOTT ST., NEW YORK,NY 10013"}, {"id": "30024", "phone": "(212) 343-1919", "name": "CENTRE STREET PHARMACEUTICAL LLC.", "zip": "10013", "address": "139 CENTRE ST., RETAIL #4, NEW YORK,NY 10013"}, {"id": "30556", "phone": "(212) 925-3838", "name": "CENTURY GRAND, INC.", "zip": "10002", "address": "302A GRAND ST, NEW YORK,NY 10002"}, {"id": "19085", "phone": "(212) 289-1821", "name": "CHARMAR INC.", "zip": "10035", "address": "2253 3RD AVE., 3RD FLOOR, NEW YORK,NY 10035"}, {"id": "31488", "phone": "(212) 255-9900", "name": "CHELSEA PHARMACY INC", "zip": "10011", "address": "165 WEST 20TH ST., NEW YORK,NY 10011"}, {"id": "30272", "phone": "(212) 255-8000", "name": "CHELSEA ROYAL CARE PHARMACY, INC.", "zip": "10011", "address": "154 NINTH AVE, NEW YORK,NY 10011"}, {"id": "31073", "phone": "", "name": "CHINATOWN PHARMACY CORP.", "zip": "10013", "address": "111 MOTT STREET, NEW YORK,NY 10013, "}, {"id": "24994", "phone": "(212) 966-9239", "name": "CHOI &amp; TAM INC.", "zip": "10013", "address": "106-110 LAFAYETE ST., NEW YORK,NY 10013"}, {"id": "20550", "phone": "(212) 289-9168", "name": "CHRISTOPHER A. BASSOLINO PHARMACY CORP.", "zip": "10128", "address": "1260 MADISON AVE., NEW YORK,NY 10128"}, {"id": "13443", "phone": "(212) 289-0811", "name": "CIARLETTA, ANTHONY P. &amp; BUCICH, CARLO", "zip": "10035", "address": "LATO-ASCIONE PHARMACY, 2268 1ST AVE., NEW YORK,NY 10035"}, {"id": "23207", "phone": "(212) 753-8638", "name": "CIPA PHARMACY INC.", "zip": "10022", "address": "1000 FIRST AVE., NEW YORK,NY 10022"}, {"id": "30951", "phone": "(212) 988-4500", "name": "CITY DRUGS NY CORP.", "zip": "10021", "address": "1273 FIRST AVE., NEW YORK,NY 10021"}, {"id": "22649", "phone": "(212) 781-1011", "name": "CITYDRUG &amp; SURGICAL, INC.", "zip": "10032", "address": "2039 AMSTERDAM AVE., NEW YORK,NY 10032"}, {"id": "27677", "phone": "(212) 737-1147", "name": "CLAYTON &amp; EDWARD CHEMISTS, INC", "zip": "10021", "address": "1004 LEXINGTON AVE, NEW YORK,NY 10021"}, {"id": "16250", "phone": "(212) 533-8120", "name": "CLEARFIELD COLUMBIA ST. DRUG CORPORATION", "zip": "10002", "address": "55 COLUMBIA ST., NEW YORK,NY 10002"}, {"id": "23498", "phone": "(212) 744-5050", "name": "CLYDE CHEMISTS, LTD.", "zip": "10021", "address": "926 MADISON AVE., NEW YORK,NY 10021"}, {"id": "21281", "phone": "(212) 927-5994", "name": "CM &amp; P PHARMACY, INC.", "zip": "10040", "address": "1600 ST. NICHOLAS AVE., NEW YORK,NY 10040"}, {"id": "13409", "phone": "(212) 663-7440", "name": "COLUMBUS &amp; 103RD ST. DRUG CORP.", "zip": "10025", "address": "916 COLUMBUS AVE., NEW YORK,NY 10025"}, {"id": "29849", "phone": "(212) 410-4200", "name": "COMFORT CARE PHARMACY, INC.", "zip": "10035", "address": "1990 LEXINGTON AVE, NEW YORK,NY 10035"}, {"id": "28755", "phone": "(212) 684-5125", "name": "COMMUNICARE, INC.", "zip": "10016", "address": "30 E. 40TH ST., NEW YORK,NY 10016"}, {"id": "31606", "phone": "(212) 775-8160", "name": "CONFUCIUS PHARMACY INC.", "zip": "10013", "address": "139 CENTRE ST., STORE #105, NEW YORK,NY 10013"}, {"id": "16069", "phone": "(212) 966-4420", "name": "CONFUCIUS PHARMACY INC.", "zip": "10002", "address": "25 BOWERY ST., NEW YORK,NY 10002"}, {"id": "27845", "phone": "(212) 795-3894", "name": "CORAL PHARMACY INC", "zip": "10033", "address": "4126 BROADWAY, NEW YORK,NY 10033"}, {"id": "30135", "phone": "(212) 755-6632", "name": "CORBY PHARMA INC.", "zip": "10022", "address": "988 FIRST AVE., NEW YORK,NY 10022"}, {"id": "9440", "phone": "(212) 398-9999", "name": "CORDETTE DRUG CORP.", "zip": "10018", "address": "55 WEST 39TH ST., NEW YORK,NY 10018"}, {"id": "29843", "phone": "(212) 896-5882", "name": "COSTCO WHOLESALE CORPORATION", "zip": "10035", "address": "517 EAST 117TH ST, NEW YORK,NY 10035"}, {"id": "29977", "phone": "(212) 966-6039", "name": "CT HEALTH CASTLE CORP.", "zip": "10013", "address": "86 BOWERY, NEW YORK,NY 10013"}, {"id": "29124", "phone": "(212) 568-1020", "name": "CUREWELL DRUGS INC.", "zip": "10033", "address": "4157 BROADWAY, NEW YORK,NY 10033"}, {"id": "24794", "phone": "(212) 233-5021", "name": "CVS ALBANY, L.L.C", "zip": "10038", "address": "129 FULTON ST., NEW YORK,NY 10038"}, {"id": "29751", "phone": "(212) 532-2354", "name": "CVS ALBANY, L.L.C", "zip": "10016", "address": "222 EAST 34TH ST, NEW YORK,NY 10016"}, {"id": "24609", "phone": "(646) 602-8237", "name": "CVS ALBANY, L.L.C", "zip": "10003", "address": "215 PARK AVENUE SOUTH, NEW YORK,NY 10003"}, {"id": "31936", "phone": "", "name": "CVS ALBANY, L.L.C.", "zip": "10019", "address": "800 10TH AVENUE, NEW YORK,NY 10019, "}, {"id": "24247", "phone": "(212) 279-2856", "name": "CVS ALBANY, L.L.C.", "zip": "10001", "address": "320 FIFTH AVE., NEW YORK,NY 10001"}, {"id": "23235", "phone": "(212) 876-7016", "name": "CVS ALBANY, L.L.C.", "zip": "10128", "address": "1622 THIRD AVE., NEW YORK,NY 10128"}, {"id": "23337", "phone": "(212) 249-5699", "name": "CVS ALBANY, L.L.C.", "zip": "10021", "address": "1396 SECOND AVE., NEW YORK,NY 10021"}, {"id": "29404", "phone": "(212) 496-4198", "name": "CVS ALBANY, L.L.C.", "zip": "10023", "address": "200 WEST END AVENUE, NEW YORK,NY 10023"}, {"id": "30566", "phone": "", "name": "CVS ALBANY, L.L.C.", "zip": "10011", "address": "81 EIGHTH AVE, NEW YORK,NY 10011, "}, {"id": "23810", "phone": "(212) 505-1555", "name": "CVS ALBANY, L.L.C.", "zip": "10010", "address": "C/O PHAMRACY, 338 EAST 23RD STREET, NEW YORK,NY 10010"}, {"id": "24435", "phone": "(212) 752-7703", "name": "CVS ALBANY, L.L.C.", "zip": "10065", "address": "1223 SECOND AVE., NEW YORK,NY 10065"}, {"id": "24516", "phone": "(212) 712-2821", "name": "CVS ALBANY, L.L.C.", "zip": "10024", "address": "540 AMSTERDAM AVENUE, NEW YORK,NY 10024"}, {"id": "26200", "phone": "(212) 289-3846", "name": "CVS ALBANY, L.L.C.", "zip": "10029", "address": "1500 LEXINGTON AVE., NEW YORK,NY 10029"}, {"id": "24978", "phone": "(212) 677-1008", "name": "CVS ALBANY, L.L.C.", "zip": "10002", "address": "500 GRAND ST., NEW YORK,NY 10002"}, {"id": "29670", "phone": "(212) 260-3052", "name": "CVS ALBANY, L.L.C.", "zip": "10003", "address": "20 UNIVERSITY PL., NEW YORK,NY 10003"}, {"id": "29710", "phone": "(212) 535-3438", "name": "CVS ALBANY, L.L.C.", "zip": "10028", "address": "1241 LEXINGTON AVENUE, NEW YORK,NY 10028"}, {"id": "24499", "phone": "(212) 996-3000", "name": "CVS ALBANY, L.L.C.", "zip": "10128", "address": "1294 LEXINGTON AVENUE, NEW YORK,NY 10128"}, {"id": "22461", "phone": "(212) 255-2592", "name": "CVS ALBANY, L.L.C.", "zip": "10011", "address": "272 8TH AVE., NEW YORK,NY 10011"}, {"id": "24179", "phone": "(212) 280-0596", "name": "CVS ALBANY, L.L.C.", "zip": "10025", "address": "743 AMSTERDAM AVE, NEW YORK,NY 10025"}, {"id": "25249", "phone": "(917) 369-8688", "name": "CVS ALBANY, L.L.C.", "zip": "10022", "address": "630 LEXINGTON AVE., NEW YORK,NY 10022"}, {"id": "23809", "phone": "(212) 627-2662", "name": "CVS ALBANY, L.L.C.", "zip": "10014", "address": "75 CHRISTOPHER STREET, NEW YORK,NY 10014"}, {"id": "24800", "phone": "(212) 304-4698", "name": "CVS ALBANY, L.L.C.", "zip": "10040", "address": "130 DYCKMAN ST., NEW YORK,NY 10040"}, {"id": "24941", "phone": "(646) 336-8388", "name": "CVS ALBANY, L.L.C.", "zip": "10010", "address": "750 AVENUE OF THE, AMERICAS, NEW YORK,NY 10010"}, {"id": "25489", "phone": "(212) 864-5431", "name": "CVS ALBANY, L.L.C.", "zip": "10027", "address": "C/0 PHARMACY, 115 W. 125TH STREET, NEW YORK,NY 10027"}, {"id": "26198", "phone": "(212) 244-4285", "name": "CVS ALBANY, L.L.C.", "zip": "10036", "address": "500 W. 42ND. ST., NEW YORK,NY 10036"}, {"id": "25164", "phone": "(212) 348-2199", "name": "CVS ALBANY, L.L.C.", "zip": "10026", "address": "130 LENOX AVE., NEW YORK,NY 10026"}, {"id": "24264", "phone": "(212) 254-1454", "name": "CVS ALBANY, L.L.C.", "zip": "10003", "address": "253 FIRST AVENUE, NEW YORK,NY 10003"}, {"id": "24263", "phone": "(212) 255-5054", "name": "CVS ALBANY, L.L.C.", "zip": "10014", "address": "307 SIXTH AVENUE, NEW YORK,NY 10014"}, {"id": "24455", "phone": "(212) 249-5198", "name": "CVS ALBANY, L.L.C.", "zip": "10028", "address": "1569-1575 FIRST AVE., NEW YORK,NY 10028"}, {"id": "29691", "phone": "(212) 787-2194", "name": "CVS ALBANY, L.L.C.", "zip": "10025", "address": "2495 BROADWAY, NEW YORK,NY 10025"}, {"id": "24262", "phone": "(212) 677-4677", "name": "CVS ALBANY, L.L.C.", "zip": "10010", "address": "275 THIRD AVENUE, NEW YORK,NY 10010"}, {"id": "22793", "phone": "(212) 982-3133", "name": "CVS ALBANY, L.L.C.", "zip": "10012", "address": "158 BLEECKER ST., NEW YORK,NY 10012"}, {"id": "23510", "phone": "(212) 245-0636", "name": "CVS ALBANY, L.L.C.", "zip": "10019", "address": "1 COLUMBUS PL., NEW YORK,NY 10019"}, {"id": "30940", "phone": "(212) 982-5193", "name": "CVS ALBANY, L.L.C.", "zip": "10010", "address": "300 PARK AVENUE SOUTH, NEW YORK,NY 10010"}, {"id": "31491", "phone": "", "name": "CVS ALBANY, L.L.C.", "zip": "10011", "address": "500 WEST 23RD ST, NEW YORK,NY 10011, "}, {"id": "28610", "phone": "(212) 661-8139", "name": "CVS ALBANY, LLC.", "zip": "10017", "address": "150 EAST 42ND ST, NEW YORK,NY 10017"}, {"id": "17113", "phone": "(212) 281-9410", "name": "DALIZA PHARMACY INC.", "zip": "10031", "address": "3481 BROADWAY, NEW YORK,NY 10031"}, {"id": "25095", "phone": "(212) 781-4214", "name": "DBN DRUGS INC.", "zip": "10033", "address": "1265 ST. NICHOLAS AVE., NEW YORK,NY 10033"}, {"id": "18520", "phone": "(212) 928-4528", "name": "DIN PHARMACY CORP.", "zip": "10032", "address": "2015 AMSTERDAM AVE., NEW YORK,NY 10032"}, {"id": "31926", "phone": "(212) 749-6626", "name": "DJ DRUGS &amp; SURGICALS INC.", "zip": "10027", "address": "2381 FREDERICK DOUGLAS, BLVD., NEW YORK,NY 10027"}, {"id": "29729", "phone": "(212) 750-4100", "name": "DORVIT PHARMACY INC.", "zip": "10065", "address": "1025 A 3RD AVENUE, NEW YORK,NY 10065"}, {"id": "25527", "phone": "(212) 233-0333", "name": "DOWNTOWN PHARMACY, INC.", "zip": "10038", "address": "DOWNTOWN PHARMACY, 165 WILLIAM ST., NEW YORK,NY 10038"}, {"id": "26336", "phone": "", "name": "DRUG SHOPPE LLC", "zip": "10026", "address": "2074 8TH AVENUE, NEW YORK,NY 10026, "}, {"id": "28047", "phone": "(212) 587-5252", "name": "DTH PHARMACY, INC.", "zip": "10038", "address": "19 BEEKMAN STREET, NEW YORK,NY 10038"}, {"id": "18607", "phone": "(212) 533-7580", "name": "DUANE READE", "zip": "10010", "address": "254 PARK AVE SOUTH, NEW YORK,NY 10010"}, {"id": "18608", "phone": "(212) 425-8460", "name": "DUANE READE", "zip": "10006", "address": "37 BROADWAY, NEW YORK,NY 10006"}, {"id": "25482", "phone": "(212) 586-2740", "name": "DUANE READE", "zip": "10019", "address": "1370 6TH AVENUE, NEW YORK,NY 10019"}, {"id": "25394", "phone": "(212) 248-3922", "name": "DUANE READE", "zip": "10004", "address": "17 BATTERY PL. SOUTH, NEW YORK,NY 10004"}, {"id": "28673", "phone": "(646) 602-2491", "name": "DUANE READE", "zip": "10003", "address": "10 UNION SQUARE EAST, NEW YORK,NY 10003"}, {"id": "26680", "phone": "(212) 874-0238", "name": "DUANE READE", "zip": "10024", "address": "2409 BROADWAY, NEW YORK,NY 10024"}, {"id": "25376", "phone": "(212) 348-7400", "name": "DUANE READE", "zip": "10128", "address": "1675 THIRD AVE., NEW YORK,NY 10128"}, {"id": "26950", "phone": "(212) 582-3463", "name": "DUANE READE", "zip": "10019", "address": "900 8TH AVE., NEW YORK,NY 10019"}, {"id": "25949", "phone": "(212) 375-9000", "name": "DUANE READE", "zip": "10009", "address": "194 EAST 2ND. ST., NEW YORK,NY 10009"}, {"id": "25115", "phone": "(212) 794-7100", "name": "DUANE READE", "zip": "10021", "address": "1091 LEXINGTON AVE., NEW YORK,NY 10021"}, {"id": "24185", "phone": "(212) 724-4270", "name": "DUANE READE", "zip": "10024", "address": "609-B COLUMBUS AVENUE, NEW YORK,NY 10024"}, {"id": "26592", "phone": "(917) 441-1756", "name": "DUANE READE", "zip": "10023", "address": "2148 BROADWAY, NEW YORK,NY 10023"}, {"id": "23517", "phone": "(212) 477-1372", "name": "DUANE READE", "zip": "10010", "address": "161 EAST 23RD ST., NEW YORK,NY 10010"}, {"id": "18630", "phone": "(212) 279-0208", "name": "DUANE READE", "zip": "10001", "address": "358-362 5TH AVE., NEW YORK,NY 10001"}, {"id": "22353", "phone": "(212) 501-8355", "name": "DUANE READE", "zip": "10025", "address": "2307 BROADWAY, NEW YORK,NY 10025"}, {"id": "25098", "phone": "(212) 608-0301", "name": "DUANE READE", "zip": "10013", "address": "50 BOWERY, NEW YORK,NY 10013"}, {"id": "18610", "phone": "(212) 943-3690", "name": "DUANE READE", "zip": "10004", "address": "67 BROAD ST., NEW YORK,NY 10004"}, {"id": "18613", "phone": "(212) 687-8641", "name": "DUANE READE", "zip": "10017", "address": "535 5TH AVE., NEW YORK,NY 10017"}, {"id": "25120", "phone": "(212) 255-5900", "name": "DUANE READE", "zip": "10011", "address": "140 WEST 23RD. ST., NEW YORK,NY 10011"}, {"id": "22978", "phone": "(212) 463-8873", "name": "DUANE READE", "zip": "10010", "address": "71 WEST 23RD ST., NEW YORK,NY 10010"}, {"id": "23786", "phone": "(212) 685-0784", "name": "DUANE READE", "zip": "10016", "address": "585 2ND. AVE., NEW YORK,NY 10016"}, {"id": "26803", "phone": "(212) 988-2115", "name": "DUANE READE", "zip": "10028", "address": "1481 THIRD AVE., NEW YORK,NY 10028"}, {"id": "24842", "phone": "(212) 529-7140", "name": "DUANE READE", "zip": "10003", "address": "125-133 THIRD AVE., NEW YORK,NY 10003"}, {"id": "27495", "phone": "(212) 491-6015", "name": "DUANE READE", "zip": "10030", "address": "300 WEST 135TH ST., NEW YORK,NY 10030"}, {"id": "23793", "phone": "(212) 326-9030", "name": "DUANE READE", "zip": "10016", "address": "465 2ND AVENUE, NEW YORK,NY 10016"}, {"id": "26961", "phone": "(212) 388-0800", "name": "DUANE READE", "zip": "10003", "address": "245 1ST AVE., NEW YORK,NY 10003"}, {"id": "22494", "phone": "(212) 730-4914", "name": "DUANE READE", "zip": "10036", "address": "22 W. 48TH ST., NEW YORK,NY 10036"}, {"id": "25138", "phone": "(212) 233-2742", "name": "DUANE READE", "zip": "10007", "address": "280 BROADWAY, NEW YORK,NY 10007"}, {"id": "23692", "phone": "(212) 360-6586", "name": "DUANE READE", "zip": "10128", "address": "1231 MADISON AVE., NEW YORK,NY 10128"}, {"id": "24283", "phone": "(212) 579-9955", "name": "DUANE READE", "zip": "10023", "address": "2025 BROADWAY, NEW YORK,NY 10023"}, {"id": "18620", "phone": "(212) 582-8525", "name": "DUANE READE", "zip": "10019", "address": "51 WEST 51ST STREET, NEW YORK,NY 10019"}, {"id": "18623", "phone": "(212) 682-5338", "name": "DUANE READE", "zip": "10017", "address": "485 LEXINGTON AVE., NEW YORK,NY 10017"}, {"id": "29144", "phone": "(212) 291-2658", "name": "DUANE READE", "zip": "10013", "address": "459 BROADWAY, NEW YORK,NY 10013"}, {"id": "31315", "phone": "(917) 502-9843", "name": "DUANE READE", "zip": "10005", "address": "100 BROADWAY, NEW YORK,NY 10005"}, {"id": "26614", "phone": "(212) 337-7650", "name": "DUANE READE", "zip": "10003", "address": "BASEMENT, 24 EAST 14TH ST., NEW YORK,NY 10003"}, {"id": "24521", "phone": "(212) 864-5246", "name": "DUANE READE", "zip": "10025", "address": "2589 BROADWAY, NEW YORK,NY 10025"}, {"id": "25179", "phone": "(646) 366-8047", "name": "DUANE READE", "zip": "10036", "address": "4 TIMES SQUARE, NEW YORK,NY 10036"}, {"id": "18790", "phone": "(212) 586-0374", "name": "DUANE READE", "zip": "10019", "address": "1627 BROADWAY, NEW YORK,NY 10019"}, {"id": "25457", "phone": "(212) 265-2302", "name": "DUANE READE", "zip": "10019", "address": "4 COLUMBUS CIRCLE, NEW YORK,NY 10019"}, {"id": "23755", "phone": "(212) 864-4189", "name": "DUANE READE", "zip": "10025", "address": "700 COLUMBUS AVE., NEW YORK,NY 10025"}, {"id": "20939", "phone": "(212) 956-0464", "name": "DUANE READE", "zip": "10019", "address": "100 WEST 57TH STREET, NEW YORK,NY 10019"}, {"id": "20981", "phone": "(212) 244-4026", "name": "DUANE READE", "zip": "10001", "address": "460 8TH AVE., NEW YORK,NY 10001"}, {"id": "20144", "phone": "(212) 683-5532", "name": "DUANE READE", "zip": "10016", "address": "4 PARK AVE., NEW YORK,NY 10016"}, {"id": "27768", "phone": "(917) 534-1370", "name": "DUANE READE", "zip": "10012", "address": "144 BLEEKER STREET, NEW YORK,NY 10012"}, {"id": "25336", "phone": "(212) 280-3085", "name": "DUANE READE", "zip": "10025", "address": "775 COLUMBUS AVE., NEW YORK,NY 10025"}, {"id": "28257", "phone": "(212) 974-6013", "name": "DUANE READE", "zip": "10036", "address": "771 8TH AVE, NEW YORK,NY 10036"}, {"id": "19590", "phone": "(212) 750-9095", "name": "DUANE READE", "zip": "10022", "address": "55 E. 55TH ST., NEW YORK,NY 10022"}, {"id": "23387", "phone": "(212) 579-7246", "name": "DUANE READE", "zip": "10024", "address": "380 AMSTERDAM AVE., NEW YORK,NY 10024"}, {"id": "23535", "phone": "(212) 385-9353", "name": "DUANE READE", "zip": "10038", "address": "200 WATER ST., NEW YORK,NY 10038"}, {"id": "28834", "phone": "(212) 406-3700", "name": "DUANE READE", "zip": "10013", "address": "352 GREENWICH ST., NEW YORK,NY 10013"}, {"id": "19499", "phone": "(212) 888-2323", "name": "DUANE READE", "zip": "10022", "address": "49 E. 52ND ST., NEW YORK,NY 10022"}, {"id": "29093", "phone": "(212) 580-2017", "name": "DUANE READE", "zip": "10023", "address": "325 COLUMBUS AVE, NEW YORK,NY 10023"}, {"id": "18631", "phone": "(212) 742-8454", "name": "DUANE READE", "zip": "10005", "address": "40 WALL ST., NEW YORK,NY 10005"}, {"id": "18625", "phone": "(212) 768-0201", "name": "DUANE READE", "zip": "10018", "address": "1430 BROADWAY, NEW YORK,NY 10018"}, {"id": "28826", "phone": "(212) 722-0014", "name": "DUANE READE", "zip": "10128", "address": "1356 LEXINGTON AVE., NEW YORK,NY 10128"}, {"id": "30722", "phone": "(212) 838-0195", "name": "DUANE READE", "zip": "10065", "address": "1111 THIRD AVE., NEW YORK,NY 10065"}, {"id": "24390", "phone": "(646) 602-8274", "name": "DUANE READE", "zip": "10003", "address": "761 BROADWAY, NEW YORK,NY 10003"}, {"id": "22587", "phone": "(212) 674-5357", "name": "DUANE READE", "zip": "10011", "address": "378 6TH AVE., NEW YORK,NY 10011"}, {"id": "24980", "phone": "(212) 560-9811", "name": "DUANE READE", "zip": "10001", "address": "1270 BROADWAY, NEW YORK,NY 10001"}, {"id": "23267", "phone": "(212) 598-0339", "name": "DUANE READE", "zip": "10003", "address": "196 THIRD AVE., NEW YORK,NY 10003"}, {"id": "25328", "phone": "(212) 243-0129", "name": "DUANE READE", "zip": "10011", "address": "180 WEST 20TH ST., NEW YORK,NY 10011"}, {"id": "22144", "phone": "(212) 355-5944", "name": "DUANE READE", "zip": "10021", "address": "1191 SECOND AVE., NEW YORK,NY 10021"}, {"id": "24803", "phone": "(212) 268-3999", "name": "DUANE READE", "zip": "10119", "address": "ONE PENN PLAZA EAST, CONCOURSE LEVEL, NEW YORK,NY 10119"}, {"id": "24717", "phone": "(212) 473-1027", "name": "DUANE READE", "zip": "10012", "address": "4 WEST 4TH ST., NEW YORK,NY 10012"}, {"id": "25553", "phone": "(212) 996-5261", "name": "DUANE READE", "zip": "10028", "address": "125 EAST 86TH ST., NEW YORK,NY 10028"}, {"id": "23746", "phone": "(212) 865-5360", "name": "DUANE READE", "zip": "10025", "address": "2683 BROADWAY, NEW YORK,NY 10025"}, {"id": "28514", "phone": "(212) 581-0602", "name": "DUANE READE", "zip": "10036", "address": "619 9TH AVE, NEW YORK,NY 10036"}, {"id": "24181", "phone": "(212) 273-0889", "name": "DUANE READE", "zip": "10018", "address": "625 8TH AVENUE, NEW YORK,NY 10018"}, {"id": "24404", "phone": "(212) 535-9816", "name": "DUANE READE", "zip": "10021", "address": "399 E. 72ND STREET, NEW YORK,NY 10021"}, {"id": "23531", "phone": "(212) 683-3042", "name": "DUANE READE", "zip": "10016", "address": "155 E. 34TH ST., NEW YORK,NY 10016"}, {"id": "23628", "phone": "(212) 253-0270", "name": "DUANE READE", "zip": "10002", "address": "100 DELANCY ST., NEW YORK,NY 10002"}, {"id": "30557", "phone": "(212) 799-1067", "name": "DUANE READE", "zip": "10023", "address": "2069 BROADWAY, NEW YORK,NY 10023"}, {"id": "31524", "phone": "(347) 273-2215", "name": "DUANE READE", "zip": "10010", "address": "300 EAST 23RD ST., NEW YORK,NY 10010"}, {"id": "27961", "phone": "(646) 486-7430", "name": "DUANE READE", "zip": "10011", "address": "315 W 23RD ST, NEW YORK,NY 10011"}, {"id": "22383", "phone": "(212) 759-9412", "name": "DUANE READE", "zip": "10022", "address": "866 THIRD AVE., NEW YORK,NY 10022"}, {"id": "21830", "phone": "(212) 343-2567", "name": "DUANE READE", "zip": "10012", "address": "598 BROADWAY, NEW YORK,NY 10012"}, {"id": "24405", "phone": "(212) 866-4232", "name": "DUANE READE", "zip": "10025", "address": "976-980 AMSTERDAM AVE, NEW YORK,NY 10025"}, {"id": "27514", "phone": "(212) 223-7037", "name": "DUANE READE", "zip": "10022", "address": "425 PARK AVE, NEW YORK,NY 10022"}, {"id": "22435", "phone": "(212) 760-8107", "name": "DUANE READE", "zip": "10001", "address": "PENN STATION, MAIN CONCOURSE/AMTRAK LVL, NEW YORK,NY 10001"}, {"id": "23629", "phone": "(212) 255-5025", "name": "DUANE READE", "zip": "10001", "address": "322 8TH AVE., NEW YORK,NY 10001"}, {"id": "25114", "phone": "(212) 391-1105", "name": "DUANE READE", "zip": "10020", "address": "1251 AVE. OF THE AMERICAS, NEW YORK,NY 10020"}, {"id": "26593", "phone": "(646) 282-0530", "name": "DUANE READE", "zip": "10022", "address": "1052 1ST AVE., NEW YORK,NY 10022"}, {"id": "18627", "phone": "(212) 221-3588", "name": "DUANE READE", "zip": "10036", "address": "1150 AVENUE OF AMERICAS, NEW YORK,NY 10036"}, {"id": "24979", "phone": "(212) 580-0497", "name": "DUANE READE", "zip": "10023", "address": "253 WEST 72ND. ST., NEW YORK,NY 10023"}, {"id": "24472", "phone": "(212) 879-8990", "name": "DUANE READE", "zip": "10021", "address": "1498 YORK AVE., NEW YORK,NY 10021"}, {"id": "29946", "phone": "(212) 206-0059", "name": "DUANE READE", "zip": "10011", "address": "131 8TH AVE., NEW YORK,NY 10011"}, {"id": "20298", "phone": "(212) 509-8890", "name": "DUANE READE", "zip": "10038", "address": "80 MAIDEN LN., NEW YORK,NY 10038"}, {"id": "25540", "phone": "(917) 492-1038", "name": "DUANE READE", "zip": "10029", "address": "1915 THIRD AVE., NEW YORK,NY 10029"}, {"id": "25288", "phone": "(917) 534-1351", "name": "DUANE READE", "zip": "10012", "address": "873 BROADWAY, NEW YORK,NY 10012"}, {"id": "24318", "phone": "(212) 678-7893", "name": "DUANE READE", "zip": "10025", "address": "2760-62 BROADWAY, NEW YORK,NY 10025"}, {"id": "27769", "phone": "(212) 265-2101", "name": "DUANE READE", "zip": "10107", "address": "250 W. 57TH ST., NEW YORK,NY 10107"}, {"id": "22297", "phone": "(212) 599-4351", "name": "DUANE READE", "zip": "10017", "address": "666 3RD AVE., NEW YORK,NY 10017"}, {"id": "26749", "phone": "(212) 421-1046", "name": "DUANE READE", "zip": "10022", "address": "931 FIRST AVE., NEW YORK,NY 10022"}, {"id": "25246", "phone": "(212) 682-1364", "name": "DUANE READE", "zip": "10169", "address": "230 PARK AVE., NEW YORK,NY 10169"}, {"id": "24939", "phone": "(646) 336-8414", "name": "DUANE READE", "zip": "10001", "address": "777 6TH AVE., NEW YORK,NY 10001"}, {"id": "21814", "phone": "(212) 808-4743", "name": "DUANE READE", "zip": "10017", "address": "405 LEXINGTON AVE., NEW YORK,NY 10017"}, {"id": "26935", "phone": "(212) 737-6240", "name": "DUANE READE", "zip": "10021", "address": "1327 YORK AVENUE, NEW YORK,NY 10021"}, {"id": "24703", "phone": "(917) 492-3550", "name": "DUANE READE", "zip": "10035", "address": "135 EAST 125TH ST., NEW YORK,NY 10035"}, {"id": "24652", "phone": "(917) 492-8801", "name": "DUANE READE", "zip": "10028", "address": "401 EAST 86TH ST., NEW YORK,NY 10028"}, {"id": "22240", "phone": "(212) 744-2668", "name": "DUANE READE", "zip": "10021", "address": "1279 THIRD AVE., NEW YORK,NY 10021"}, {"id": "24880", "phone": "(212) 567-1282", "name": "DUANE READE", "zip": "10040", "address": "188-192 DYCKMAN STREET, NEW YORK,NY 10040"}, {"id": "19376", "phone": "(212) 363-5830", "name": "DUANE READE", "zip": "10005", "address": "95 WALL ST., NEW YORK,NY 10005"}, {"id": "24722", "phone": "(212) 829-0651", "name": "DUANE READE", "zip": "10021", "address": "773 LEXINGTON AVE., NEW YORK,NY 10021"}, {"id": "23437", "phone": "(212) 427-6940", "name": "DUANE READE", "zip": "10028", "address": "1646 2ND AVENUE, NEW YORK,NY 10028"}, {"id": "24418", "phone": "(212) 316-5113", "name": "DUANE READE", "zip": "10025", "address": "2864 BROADWAY, NEW YORK,NY 10025"}, {"id": "24824", "phone": "(212) 682-3191", "name": "DUANE READE", "zip": "10017", "address": "630 3RD AVENUE, NEW YORK,NY 10017"}, {"id": "20354", "phone": "(212) 509-9020", "name": "DUANE READE", "zip": "10024", "address": "1 WHITEHALL ST., NEW YORK,NY 10024"}, {"id": "18626", "phone": "(212) 448-0025", "name": "DUANE READE", "zip": "10017", "address": "260 MADISON AVENUE, NEW YORK,NY 10017"}, {"id": "18616", "phone": "(212) 221-8627", "name": "DUANE READE", "zip": "10018", "address": "525 7TH AVE., NEW YORK,NY 10018"}, {"id": "18622", "phone": "(212) 541-9708", "name": "DUANE READE", "zip": "10014", "address": "585 HUDSON ST., NEW YORK,NY 10014"}, {"id": "29253", "phone": "(212) 619-7181", "name": "DUANE READE", "zip": "10038", "address": "17 JOHN ST, NEW YORK,NY 10038"}, {"id": "30360", "phone": "(212) 643-6090", "name": "DUANE READE", "zip": "10018", "address": "455 WEST 37TH ST., NEW YORK,NY 10018"}, {"id": "26645", "phone": "(212) 423-2042", "name": "DUANE READE", "zip": "10029", "address": "333 EAST 102ND STREET, NEW YORK,NY 10029"}, {"id": "29754", "phone": "(212) 695-6346", "name": "DUANE READE", "zip": "10018", "address": "1350 BROADWAY, NEW YORK,NY 10018"}, {"id": "21615", "phone": "(212) 239-0167", "name": "DUANE READE", "zip": "10001", "address": "333 7TH AVE., NEW YORK,NY 10001"}, {"id": "25030", "phone": "(212) 586-6749", "name": "DUANE READE", "zip": "10023", "address": "1889 BROADWAY, NEW YORK,NY 10023"}, {"id": "24520", "phone": "(917) 432-0634", "name": "DUANE READE", "zip": "10021", "address": "1187 1ST AVE., NEW YORK,NY 10021"}, {"id": "23607", "phone": "(212) 741-3365", "name": "DUANE READE", "zip": "10011", "address": "29-33 7TH AVE., NEW YORK,NY 10011"}, {"id": "23436", "phone": "(212) 585-2106", "name": "DUANE READE", "zip": "10075", "address": "1467 FIRST AVE. #168, NEW YORK,NY 10075"}, {"id": "23588", "phone": "(212) 665-8966", "name": "DUANE READE", "zip": "10027", "address": "1290 AMSTERDAM AVE., NEW YORK,NY 10027"}, {"id": "23599", "phone": "(212) 925-5307", "name": "DUANE READE", "zip": "10012", "address": "60 SPRING ST., NEW YORK,NY 10012"}, {"id": "24793", "phone": "(212) 385-1131", "name": "DUANE READE", "zip": "10038", "address": "130 WILLIAM ST., NEW YORK,NY 10038"}, {"id": "22499", "phone": "(212) 980-0965", "name": "DUANE READE", "zip": "10022", "address": "949 THIRD AVE., NEW YORK,NY 10022"}, {"id": "24403", "phone": "(212) 983-1810", "name": "DUANE READE", "zip": "10017", "address": "852 2ND. AVE., NEW YORK,NY 10017"}, {"id": "22198", "phone": "(212) 663-4391", "name": "DUANE READE", "zip": "10027", "address": "279-283 W. 125TH ST., NEW YORK,NY 10027"}, {"id": "22086", "phone": "(212) 989-3639", "name": "DUANE READE", "zip": "10003", "address": "1ST FLOOR, 24 EAST 14TH ST., NEW YORK,NY 10003"}, {"id": "23639", "phone": "(212) 358-8206", "name": "DUANE READE", "zip": "10003", "address": "1 UNION SQUARE SOUTH, NEW YORK,NY 10003"}, {"id": "29238", "phone": "(212) 570-2710", "name": "DUANE READE", "zip": "10028", "address": "1235 LEXINGTON AVE, NEW YORK,NY 10028"}, {"id": "21942", "phone": "(212) 977-1562", "name": "DUANE READE", "zip": "10036", "address": "661 8TH AVE., NEW YORK,NY 10036"}, {"id": "18617", "phone": "(212) 421-4880", "name": "DUANE READE", "zip": "10022", "address": "41 EAST 58TH ST., NEW YORK,NY 10022"}, {"id": "18624", "phone": "(212) 791-3801", "name": "DUANE READE", "zip": "10038", "address": "99 JOHN STREET, NEW YORK,NY 10038"}, {"id": "26229", "phone": "(212) 939-0941", "name": "DUANE READE", "zip": "10039", "address": "320 W. 145TH ST., NEW YORK,NY 10039"}, {"id": "29407", "phone": "(212) 334-5329", "name": "DUANE READE", "zip": "10027", "address": "568 W 125TH ST, NEW YORK,NY 10027"}, {"id": "30980", "phone": "(212) 957-4680", "name": "DUANE READE", "zip": "10119", "address": "1657 BROADWAY, NEW YORK,NY 10119"}, {"id": "18609", "phone": "(212) 571-4511", "name": "DUANE READE", "zip": "10007", "address": "250 BROADWAY, NEW YORK,NY 10007"}, {"id": "18612", "phone": "(212) 213-9730", "name": "DUANE READE", "zip": "10016", "address": "401 PARK AVENUE SOUTH, NEW YORK,NY 10016"}, {"id": "23737", "phone": "(212) 923-6912", "name": "DUANE READE", "zip": "10033", "address": "617 WEST 181ST STREET, NEW YORK,NY 10033"}, {"id": "25994", "phone": "(212) 571-4621", "name": "DUANE READE", "zip": "10013", "address": "111 WORTH ST., NEW YORK,NY 10013"}, {"id": "24626", "phone": "(212) 223-1130", "name": "DUANE READE", "zip": "10022", "address": "1082 2ND AVE., NEW YORK,NY 10022"}, {"id": "27469", "phone": "(212) 945-4450", "name": "DUANE READE", "zip": "10282", "address": "325 NORTH END AVE, NEW YORK,NY 10282"}, {"id": "23716", "phone": "(212) 987-1372", "name": "DUANE READE", "zip": "10029", "address": "2108 3RD. AVE., NEW YORK,NY 10029"}, {"id": "25327", "phone": "(212) 599-7492", "name": "DUANE READE", "zip": "10016", "address": "300 EAST 39TH ST., NEW YORK,NY 10016"}, {"id": "23783", "phone": "(212) 691-0952", "name": "DUANE READE", "zip": "10011", "address": "611 AVENUE OF AMERICAS, NEW YORK,NY 10011"}, {"id": "28491", "phone": "(212) 534-2000", "name": "DUANE READE", "zip": "10028", "address": "1637 YORK AVE, NEW YORK,NY 10028"}, {"id": "28121", "phone": "(212) 475-3563", "name": "DUANE READE", "zip": "10003", "address": "46 THIRD AVE., NEW YORK,NY 10003"}, {"id": "26862", "phone": "(212) 979-2142", "name": "DUANE READE", "zip": "10012", "address": "636 BROADWAY, NEW YORK,NY 10012"}, {"id": "23570", "phone": "(212) 581-5527", "name": "DUANE READE", "zip": "10023", "address": "4 AMSTERDAM AVE., NEW YORK,NY 10023"}, {"id": "24825", "phone": "(212) 243-2446", "name": "DUANE READE", "zip": "10011", "address": "77 7TH AVENUE, NEW YORK,NY 10011"}, {"id": "24534", "phone": "(646) 422-1023", "name": "DUANE READE", "zip": "10021", "address": "1524 2ND. AVE., NEW YORK,NY 10021"}, {"id": "24536", "phone": "(212) 246-0168", "name": "DUANE READE", "zip": "10019", "address": "721 9TH AVE., NEW YORK,NY 10019"}, {"id": "22184", "phone": "(212) 663-1580", "name": "DUANE READE", "zip": "10025", "address": "2522 BROADWAY, NEW YORK,NY 10025"}, {"id": "31165", "phone": "", "name": "DUANE READE", "zip": "10017", "address": "575 LEXINGTON AVE., NEW YORK,NY 10017, "}, {"id": "30755", "phone": "(212) 838-0195", "name": "DUANE READE", "zip": "10128", "address": "1550 3RD AVE., NEW YORK,NY 10128"}, {"id": "31217", "phone": "(917) 816-5660", "name": "DUANE READE", "zip": "10031", "address": "3387 BROADWAY, NEW YORK,NY 10031"}, {"id": "18611", "phone": "(212) 227-6168", "name": "DUANE READE", "zip": "10007", "address": "305 BROADWAY, NEW YORK,NY 10007"}, {"id": "26097", "phone": "(646) 672-1760", "name": "DUANE READE", "zip": "10128", "address": "1749-53 FIRST AVENUE, NEW YORK,NY 10128"}, {"id": "27149", "phone": "(212) 410-2508", "name": "DUANE READE", "zip": "10029", "address": "1490 MADISON AVENUE, NEW YORK,NY 10029"}, {"id": "30381", "phone": "(212) 234-4493", "name": "DUNBAR PHARMACY INC.", "zip": "10039", "address": "2580 ADAM CLAYTON POWELL, JR. BLVD., NEW YORK,NY 10039"}, {"id": "18828", "phone": "(212) 226-1415", "name": "DYNASTY DRUG &amp; TRADING, INC.", "zip": "10012", "address": "208 MOTT ST., NEW YORK,NY 10012"}, {"id": "30860", "phone": "(212) 962-3388", "name": "E CARE PHARMACY CORP", "zip": "10013", "address": "48 MOTT ST., NEW YORK,NY 10013"}, {"id": "31564", "phone": "(212) 420-8642", "name": "EAST BROADWAY DRUGS CORP.", "zip": "10002", "address": "215 EAST BROADWAY, NEW YORK,NY 10002"}, {"id": "18037", "phone": "(212) 228-0400", "name": "EAST DRIVE PHARMACY, INC.", "zip": "10009", "address": "93 AVE. D, NEW YORK,NY 10009"}, {"id": "25216", "phone": "(212) 831-1730", "name": "EAST END PHARMACY, INC.", "zip": "10029", "address": "210 EAST 116TH ST., NEW YORK,NY 10029"}, {"id": "31506", "phone": "(646) 750-3744", "name": "EAST HARLEM PHARMACY CORP.", "zip": "10037", "address": "2095 MADISON AVE., NEW YORK,NY 10037"}, {"id": "20892", "phone": "(212) 420-8642", "name": "EAST RX CORP.", "zip": "10002", "address": "215 E. BROADWAY, NEW YORK,NY 10002"}, {"id": "24314", "phone": "(718) 445-5400", "name": "EAST SIDE PHARMACY, INC.", "zip": "10128", "address": "1751 SECOND AVENUE, NEW YORK,NY 10128"}, {"id": "27486", "phone": "(212) 228-6137", "name": "EQUAL CARE PHARMACY, INC", "zip": "10009", "address": "753 E 5TH ST, NEW YORK,NY 10009"}, {"id": "31230", "phone": "(212) 348-6700", "name": "ERRI INC.", "zip": "10035", "address": "245 EAST 124TH STREET, NEW YORK,NY 10035"}, {"id": "30450", "phone": "(212) 625-8339", "name": "ERXCITY CORP", "zip": "10013", "address": "185 CANAL ST., NEW YORK,NY 10013"}, {"id": "3599", "phone": "(212) 246-8169", "name": "ESCO DRUG CO., INC.", "zip": "10036", "address": "687 9TH AVE., NEW YORK,NY 10036"}, {"id": "27621", "phone": "(212) 423-2910", "name": "ESKAY PHARMACY INC.", "zip": "10029", "address": "2101 FIRST AVENUE, NEW YORK,NY 10029"}, {"id": "30032", "phone": "(212) 781-4214", "name": "ETHICAL DRUG INC.", "zip": "10033", "address": "1265 ST. NICHOLAS AVE., NEW YORK,NY 10033"}, {"id": "25353", "phone": "(212) 695-4232", "name": "EUREKA LABORATORIES, INC.", "zip": "10001", "address": "894 6TH AVENUE, NEW YORK,NY 10001"}, {"id": "26553", "phone": "(212) 677-6688", "name": "EVE &amp; STEVE PHARMACY, INC.", "zip": "10002", "address": "250 EAST HOUSTON STREET, NEW YORK,NY 10002"}, {"id": "24266", "phone": "(212) 249-1050", "name": "EVEREADY DRUGS LLC", "zip": "10021", "address": "1229 THIRD AVE., NEW YORK,NY 10021"}, {"id": "21397", "phone": "(212) 569-0400", "name": "EXPRESS DRUGS, INC.", "zip": "10040", "address": "126 DYCKMAN ST., NEW YORK,NY 10040"}, {"id": "29565", "phone": "(212) 343-8899", "name": "EZ CARE PHARMACY LLC", "zip": "10013", "address": "87 ELIZABETH STREET, 1ST FLOOR, NEW YORK,NY 10013"}, {"id": "29676", "phone": "(212) 925-6088", "name": "FAMILY CHOICE PHARMACY CORP.", "zip": "10013", "address": "221 CANAL STREET, 2ND FLOOR, NEW YORK,NY 10013"}, {"id": "25522", "phone": "(212) 222-1300", "name": "FAMILY PHARMACY &amp; SURGICAL INC.", "zip": "10027", "address": "379 WEST 125TH STREET, NEW YORK,NY 10027"}, {"id": "27305", "phone": "(212) 732-3388", "name": "FAMILY PLUS PHARMACY CORP.", "zip": "10013", "address": "THE CHINA ARCADE, 14-18 ELIZABETH ST., NEW YORK,NY 10013"}, {"id": "29586", "phone": "(212) 942-5050", "name": "FARMACIA CENTRAL, INC.", "zip": "10040", "address": "102 NAGLE AVE., NEW YORK,NY 10040"}, {"id": "23934", "phone": "(212) 737-8800", "name": "FARMACIA INC.", "zip": "10028", "address": "1631 YORK AVE., NEW YORK,NY 10028"}, {"id": "27997", "phone": "(212) 877-3308", "name": "FEDERAL EASTERN CHEMISTS LLC.", "zip": "10023", "address": "309 COLUMBUS AVENUE, NEW YORK,NY 10023"}, {"id": "9097", "phone": "(212) 862-3315", "name": "FEIN'S ETHICAL PHARMACY CORP.", "zip": "10031", "address": "3586 BROADWAY, NEW YORK,NY 10031"}, {"id": "26196", "phone": "(212) 966-7588", "name": "FIRST PHARMACEUTICAL CORP.", "zip": "10013", "address": "85 ELIZABETH STREET., NEW YORK,NY 10013"}, {"id": "30774", "phone": "(212) 625-8878", "name": "FOOKANG PHARMACY, INC.", "zip": "10013", "address": "139 CENTRE ST., APT 201, NEW YORK,NY 10013"}, {"id": "30411", "phone": "", "name": "FOREVER HEALTH PHARMACY I, LLC", "zip": "10002", "address": "244 GRAND STREET, NEW YORK,NY 10002, "}, {"id": "29191", "phone": "(212) 966-7887", "name": "FOREVER HEALTH PHARMACY INC.", "zip": "10038", "address": "2 EAST BROADWAY, NEW YORK,NY 10038"}, {"id": "31259", "phone": "", "name": "FORUM DRUGS INC.", "zip": "10027", "address": "165 WEST 127TH STREET, #10, NEW YORK,NY 10027, "}, {"id": "17349", "phone": "(212) 222-4650", "name": "FOZI, INC.", "zip": "10025", "address": "960 AMSTERDAM AVENUE, NEW YORK,NY 10025"}, {"id": "21723", "phone": "(212) 535-4710", "name": "FRS DRUG INC.", "zip": "10021", "address": "1475 SECOND AVE., NEW YORK,NY 10021"}, {"id": "29285", "phone": "(212) 431-6688", "name": "FULTON FAMILY PHARMACY INC", "zip": "10002", "address": "98 EAST BROADWAY 1F, NEW YORK,NY 10002"}, {"id": "30995", "phone": "(212) 755-4244", "name": "G.A.C. PHARMACY CORP.", "zip": "10022", "address": "1032 1ST AVE., NEW YORK,NY 10022"}, {"id": "25161", "phone": "(212) 227-7262", "name": "GENERAL CARE PHARMACY, INC.", "zip": "10002", "address": "159-A EAST BROADWAY, NEW YORK,NY 10002"}, {"id": "27853", "phone": "(212) 227-9129", "name": "GENERATION PHARMACY LLC", "zip": "10038", "address": "31-33 OLIVER ST, STORE #3, NEW YORK,NY 10038"}, {"id": "26931", "phone": "(212) 334-0431", "name": "GENOVESE DRUG STORES, INC.", "zip": "10012", "address": "495 BROADWAY, NEW YORK,NY 10012"}, {"id": "26307", "phone": "(845) 246-2886", "name": "GENOVESE DRUG STORES, INC.", "zip": "10080", "address": "250 VESEY ST., NEW YORK,NY 10080"}, {"id": "21855", "phone": "(212) 772-0104", "name": "GENOVESE DRUG STORES, INC.", "zip": "10021", "address": "1299 SECOND AVE., NEW YORK,NY 10021"}, {"id": "26942", "phone": "(212) 929-6915", "name": "GENOVESE DRUG STORES, INC.", "zip": "10011", "address": "195 8TH AVE., NEW YORK,NY 10011"}, {"id": "26805", "phone": "(212) 575-6868", "name": "GIDEON'S DRUGS, INC.", "zip": "10018", "address": "1385 BROADWAY, NEW YORK,NY 10018"}, {"id": "26160", "phone": "(212) 567-1115", "name": "GOOD CARE PHARMACY INC.", "zip": "10034", "address": "232A SHERMAN AVENUE, NEW YORK,NY 10034"}, {"id": "31845", "phone": "(212) 289-7800", "name": "GOTHAM PHARMACY INC.", "zip": "10035", "address": "2258 THIRD AVENUE, NEW YORK,NY 10035"}, {"id": "31324", "phone": "(212) 532-0022", "name": "GRAMERCY DRUGS INC.", "zip": "10010", "address": "214 EAST 23RD. STREET, NEW YORK,NY 10010"}, {"id": "30234", "phone": "(212) 228-0068", "name": "GRAND HEALTH PHARMACY, INC.", "zip": "10002", "address": "349 GRAND ST., NEW YORK,NY 10002"}, {"id": "28030", "phone": "(212) 625-9505", "name": "GRAND STREET PHARMACEUTICAL LLC", "zip": "10013", "address": "215-7 GRAND STREET, NEW YORK,NY 10013"}, {"id": "25552", "phone": "(917) 441-5960", "name": "GRISTEDES FOODS, INC.", "zip": "10023", "address": "80 WEST  END AVE., NEW YORK,NY 10023"}, {"id": "25026", "phone": "(212) 879-9050", "name": "GRISTEDES FOODS, INC.", "zip": "10021", "address": "1344 FIRST AVE., NEW YORK,NY 10021"}, {"id": "30325", "phone": "(212) 234-3900", "name": "GSPM PHARMACY INC.", "zip": "10039", "address": "2830 FREDERICK DOUGLAS, BLVD, NEW YORK,NY 10039"}, {"id": "30730", "phone": "(212) 535-1700", "name": "H &amp; C CHEMISTS INC.", "zip": "10021", "address": "1299 FIRST AVE., NEW YORK,NY 10021"}, {"id": "17199", "phone": "(212) 928-7263", "name": "H &amp; J PHARMACEUTICAL INC.", "zip": "10033", "address": "1381 ST. NICHOLAS AVE., NEW YORK,NY 10033"}, {"id": "20825", "phone": "(212) 777-6864", "name": "HAGH PRESCRIPTION HEADQUARTERS INC.", "zip": "10010", "address": "371 1ST. AVENUE, NEW YORK,NY 10010"}, {"id": "26430", "phone": "(212) 281-0488", "name": "HAMILTON PHARMACY INC.", "zip": "10027", "address": "3293 BROADWAY, NEW YORK,NY 10027"}, {"id": "15703", "phone": "(212) 281-7121", "name": "HAMILTON PRESCRIPTIONS INC.", "zip": "10031", "address": "5 HAMILTON PL., NEW YORK,NY 10031"}, {"id": "25993", "phone": "(212) 281-7276", "name": "HARLEM DRUGS INC.", "zip": "10037", "address": "565 LENOX AVE., NEW YORK,NY 10037"}, {"id": "28985", "phone": "(212) 939-8064", "name": "HARLEM HOSPITAL CENTER", "zip": "10037", "address": "C/O OUTPATIENT PHARMACY, 530 LENOX AVE., NEW YORK,NY 10037"}, {"id": "25606", "phone": "(212) 831-0200", "name": "HARLEM PHARMACY INC.", "zip": "10027", "address": "17 WEST 125TH ST., NEW YORK,NY 10027"}, {"id": "30363", "phone": "(212) 666-8100", "name": "HARLEM RX INC.", "zip": "10026", "address": "102 D E F WEST 116TH ST., NEW YORK,NY 10026"}, {"id": "29425", "phone": "(212) 926-7500", "name": "HARLEM STAR PHARMACY INC.", "zip": "10037", "address": "67 WEST 137TH STREET, NEW YORK,NY 10037"}, {"id": "24282", "phone": "(212) 568-4000", "name": "HASHMAT PHARMACY, INC.", "zip": "10040", "address": "1654 ST. NICHOLAS AVE, NEW YORK,NY 10040"}, {"id": "27038", "phone": "(212) 267-8882", "name": "HEALTH CITY PHARMACY CORP.", "zip": "10013", "address": "137 MOTT STREET, NEW YORK,NY 10013"}, {"id": "31185", "phone": "(212) 781-8888", "name": "HEALTH RITE PHARMACY INC.", "zip": "10032", "address": "1988 AMSTERDAM AVE., NEW YORK,NY 10032"}, {"id": "21341", "phone": "(212) 472-5600", "name": "HEALTH WISE PHARMACY INC.", "zip": "10075", "address": "1494 YORK AVE., NEW YORK,NY 10075"}, {"id": "25501", "phone": "(212) 481-6600", "name": "HEALTHSOURCE PHARMACY II, INC.", "zip": "10016", "address": "120 E. 34TH ST., NEW YORK,NY 10016"}, {"id": "30612", "phone": "(212) 310-0111", "name": "HEALTHSOURCE PHARMACY III B INC.", "zip": "10022", "address": "1000 FIRST AVE, NEW YORK,NY 10022"}, {"id": "27524", "phone": "(212) 794-8700", "name": "HEALTHSOURCE PHARMACY III, INC", "zip": "10022", "address": "235 EAST 57TH STREET, NEW YORK,NY 10022"}, {"id": "25135", "phone": "(212) 794-8700", "name": "HEALTHSOURCE PHARMACY, INC.", "zip": "10021", "address": "1302 SECOND AVE., NEW YORK,NY 10021"}, {"id": "31003", "phone": "(212) 285-0977", "name": "HEALTHY LIFE PHARMACY INC.", "zip": "10013", "address": "77 MOTT ST., NEW YORK,NY 10013"}, {"id": "26567", "phone": "(212) 966-8682", "name": "HEALTHY PHARMACY INC.", "zip": "10013", "address": "108 BOWERY, NEW YORK,NY 10013"}, {"id": "31700", "phone": "(212) 740-3737", "name": "HEIDI PHARMACY INC.", "zip": "10033", "address": "522 WEST 181ST STREET, NEW YORK,NY 10033"}, {"id": "28398", "phone": "(212) 795-4080", "name": "HEIGHTS COMMUNITY PHARMACY, INC.,THE", "zip": "10032", "address": "120 AUDUBON AVENUE, NEW YORK,NY 10032"}, {"id": "25669", "phone": "(212) 781-0707", "name": "HEIGHTS PHARMACY, INC.", "zip": "10033", "address": "719 WEST 181ST. ST., NEW YORK,NY 10033"}, {"id": "29063", "phone": "(212) 966-7599", "name": "HESTER PHARMACY CORP.", "zip": "10013", "address": "151-155 HESTER ST, NEW YORK,NY 10013"}, {"id": "30746", "phone": "", "name": "HLP PHARMCY, INC.", "zip": "10031", "address": "3569 BROADWAY, NEW YORK,NY 10031, "}, {"id": "29566", "phone": "(212) 989-1400", "name": "HUDSON SQUARE PHARMACY LLC", "zip": "10014", "address": "345 HUDSON ST., NEW YORK,NY 10014"}, {"id": "31755", "phone": "(212) 795-7455", "name": "IEFA LLC.", "zip": "10033", "address": "4197 BROADWAY, NEW YORK,NY 10033"}, {"id": "29975", "phone": "(212) 304-4646", "name": "INWOOD PHARMA INC.", "zip": "10034", "address": "4915 BROADWAY, NEW YORK,NY 10034"}, {"id": "24544", "phone": "(212) 304-4646", "name": "INWOOD PHARMACY, INC.", "zip": "10034", "address": "4915 BROADWAY #3,4, NEW YORK,NY 10034"}, {"id": "20350", "phone": "(212) 567-3137", "name": "ISHAM BROADWAY PHARMACY INC.", "zip": "10034", "address": "4996 BROADWAY, NEW YORK,NY 10034"}, {"id": "13251", "phone": "(212) 427-7123", "name": "ISLA DRUG STORES INC.", "zip": "10029", "address": "1994 THIRD AVE., NEW YORK,NY 10029"}, {"id": "1", "phone": "(212) 288-9500", "name": "J. LEON LASCOFF &amp; SON INC.", "zip": "10028", "address": "1209 LEXINGTON AVE., NEW YORK,NY 10028"}, {"id": "31891", "phone": "(212) 734-5678", "name": "J.BIRDS, INC.", "zip": "10065", "address": "855 LEXINGTON AVENUE, NEW YORK,NY 10065"}, {"id": "20541", "phone": "(212) 929-7527", "name": "J.D. PHARMACY, INC.", "zip": "10014", "address": "302 WEST 12TH ST., NEW YORK,NY 10014"}, {"id": "19570", "phone": "(212) 662-6630", "name": "J.J. COLUMBUS DRUG CO. INC.", "zip": "10025", "address": "1009 COLUMBUS AVE., NEW YORK,NY 10025"}, {"id": "18844", "phone": "(212) 795-1240", "name": "J.J. PHARMACY CO., INC.", "zip": "10032", "address": "4043 BROADWAY, NEW YORK,NY 10032"}, {"id": "16953", "phone": "(212) 368-8100", "name": "J.W. EMBASSY CORP.", "zip": "10039", "address": "200-210 W. 145TH STREET, NEW YORK,NY 10039"}, {"id": "24305", "phone": "(212) 567-1350", "name": "JANIK PHARMACY CORP.", "zip": "10034", "address": "520 WEST 207TH STREET, NEW YORK,NY 10034"}, {"id": "29079", "phone": "(212) 568-1383", "name": "JAY PHARMACY CORP.", "zip": "10033", "address": "1328 ST NICHOLAS AVE, NEW YORK,NY 10033"}, {"id": "19519", "phone": "(212) 265-8110", "name": "JAYASUDHA INC.", "zip": "10019", "address": "767 9TH AVE., NEW YORK,NY 10019"}, {"id": "17952", "phone": "(212) 517-7500", "name": "JED INC.", "zip": "10021", "address": "1449 FIRST AVE., NEW YORK,NY 10021"}, {"id": "31367", "phone": "(347) 952-4747", "name": "JEFFERSON PHARMA LLC", "zip": "10030", "address": "210 WEST 145TH STREET, NEW YORK,NY 10030"}, {"id": "17050", "phone": "(212) 923-4190", "name": "JKM DRUGS INC.", "zip": "10033", "address": "1479 ST. NICHOLAS AVENUE, NEW YORK,NY 10033"}, {"id": "15799", "phone": "(212) 795-4909", "name": "JMC PHARMACY, INC.", "zip": "10032", "address": "3865 BROADWAY, NEW YORK,NY 10032"}, {"id": "23089", "phone": "(212) 219-0095", "name": "JOIA PHARMACY INC.", "zip": "10013", "address": "3 WALKER ST., NEW YORK,NY 10013"}, {"id": "24584", "phone": "(212) 213-8323", "name": "JOMESSE ENTERPRISES INC", "zip": "10039", "address": "2580 SEVENTH AVE., NEW YORK,NY 10039"}, {"id": "28965", "phone": "(212) 304-0101", "name": "JRA DRUG CORP.", "zip": "10034", "address": "506 W 207TH ST, NEW YORK,NY 10034"}, {"id": "26695", "phone": "(212) 923-6111", "name": "JUSTIN PHARMACY INC.", "zip": "10032", "address": "3860 BROADWAY, NEW YORK,NY 10032"}, {"id": "26955", "phone": "(212) 473-0277", "name": "JVJ PHARMACY INC.", "zip": "10003", "address": "74 UNIVERSITY PLACE, NEW YORK,NY 10003"}, {"id": "24945", "phone": "(212) 505-1788", "name": "K &amp; R UNITED CORP.", "zip": "10009", "address": "227 AVENUE B, NEW YORK,NY 10009"}, {"id": "25667", "phone": "(212) 475-5760", "name": "KARNABY CHEMISTS, INC.", "zip": "10002", "address": "407 GRAND ST., NEW YORK,NY 10002"}, {"id": "25191", "phone": "(212) 534-9244", "name": "KINGS THIRD AVE. PHARMACY, INC.", "zip": "10128", "address": "1619 THIRD AVE., NEW YORK,NY 10128"}, {"id": "23690", "phone": "(212) 791-3100", "name": "KINGS TRIBECA PHARMACY, INC.", "zip": "10013", "address": "5 HUDSON ST., NEW YORK,NY 10013"}, {"id": "23053", "phone": "(212) 760-1242", "name": "KMART CORPORATION", "zip": "10119", "address": "1 PENN PLAZA, 250 WEST 34TH ST., NEW YORK,NY 10119"}, {"id": "23094", "phone": "(212) 253-9661", "name": "KMART CORPORATION", "zip": "10003", "address": "770 BROADWAY, NEW YORK,NY 10003"}, {"id": "31138", "phone": "(212) 962-4900", "name": "L &amp; V PHARMACY INC.", "zip": "10038", "address": "99 NASSAU ST., STORE 111, NEW YORK,NY 10038"}, {"id": "16369", "phone": "(212) 369-5555", "name": "L.D.C. PHARMACY CORP.", "zip": "10035", "address": "1901 MADISON AVE., NEW YORK,NY 10035"}, {"id": "17806", "phone": "(212) 795-5004", "name": "LA ALTAGRACIA PHARMACY, INC.", "zip": "10040", "address": "1544 A ST. NICHOLAS AVE., NEW YORK,NY 10040"}, {"id": "29488", "phone": "(212) 568-6878", "name": "LA HISPANA ON BROADWAY PHARMACY, LLC", "zip": "10032", "address": "3890 BROADWAY, NEW YORK,NY 10032"}, {"id": "31380", "phone": "(212) 722-0100", "name": "LADA PHARMACY INC.", "zip": "10029", "address": "3 EAST 115TH ST., NEW YORK,NY 10029"}, {"id": "31098", "phone": "(212) 513-1177", "name": "LC PHARMACY INC.", "zip": "10002", "address": "75 EAST BROADWAY, SOUTH BUILDING, NEW YORK,NY 10002"}, {"id": "15501", "phone": "(212) 368-3130", "name": "LENDA PHARMACY, INC.", "zip": "10031", "address": "3397 BROADWAY, NEW YORK,NY 10031"}, {"id": "31252", "phone": "(212) 281-7408", "name": "LENOX DRUG CORP", "zip": "10037", "address": "523 LENOX AVENUE, NEW YORK,NY 10037"}, {"id": "23694", "phone": "(212) 879-0910", "name": "LENOX HILL PHARMACY INC.", "zip": "10021", "address": "1103 LEXINGTON AVE., NEW YORK,NY 10021"}, {"id": "23095", "phone": "(212) 678-9722", "name": "LENOX PHARMACY INC.", "zip": "10026", "address": "27 LENOX AVE., NEW YORK,NY 10026"}, {"id": "30815", "phone": "(212) 368-7900", "name": "LENOX STAR PHARMACY INC.", "zip": "10037", "address": "531 LENOX AVE., NEW YORK,NY 10037"}, {"id": "31234", "phone": "", "name": "LENOX SUPER PHARMACY INC.", "zip": "10037", "address": "685 LENOX AVENUE, NEW YORK,NY 10037, "}, {"id": "31208", "phone": "", "name": "LENOX TERRACE II LLC.", "zip": "10037", "address": "480A LENOX AVE., NEW YORK,NY 10037, "}, {"id": "25372", "phone": "(212) 234-2050", "name": "LENOX TERRACE PHARMACY, INC.", "zip": "10037", "address": "20 WEST 135TH STREET, NEW YORK,NY 10037"}, {"id": "17529", "phone": "(212) 678-0636", "name": "LERIN DRUG CO., INC.", "zip": "10025", "address": "501 WEST 113TH ST., NEW YORK,NY 10025"}, {"id": "25909", "phone": "(212) 426-0402", "name": "LEX DRUGS INC.", "zip": "10029", "address": "1797 LEXINGTON AVE., NEW YORK,NY 10029"}, {"id": "30023", "phone": "(212) 426-5555", "name": "LEXINGTON AVENUE PHARMACY, INC.", "zip": "10035", "address": "2056 LEXINGTON AVENUE, NEW YORK,NY 10035"}, {"id": "21266", "phone": "(212) 838-2500", "name": "LEXINGTON CHEMISTS, INC.", "zip": "10021", "address": "806 LEXINGTON AVE., NEW YORK,NY 10021"}, {"id": "31286", "phone": "", "name": "LEXINGTON HEALTHCARE INC.", "zip": "10029", "address": "1570 LEXINGTON AVENUE, NEW YORK,NY 10029, "}, {"id": "27351", "phone": "(212) 281-8300", "name": "LGDK LLC", "zip": "10031", "address": "752 ST. NICHOLAS AVE, NEW YORK,NY 10031"}, {"id": "29019", "phone": "(212) 694-5700", "name": "LIFE PHARMA II INC.", "zip": "10037", "address": "471 LENOX AVE, NEW YORK,NY 10037"}, {"id": "25491", "phone": "(212) 724-1950", "name": "LISALISA, INC.", "zip": "10024", "address": "2330 BROADWAY, NEW YORK,NY 10024"}, {"id": "25186", "phone": "(212) 254-7307", "name": "LOISAIDA RX, INC.", "zip": "10009", "address": "273 EAST THIRD ST., NEW YORK,NY 10009"}, {"id": "28788", "phone": "(212) 693-8866", "name": "LONGEVITY PHARMACY LLC", "zip": "10002", "address": "96 EAST BROADWAY, NEW YORK,NY 10002"}, {"id": "29773", "phone": "(212) 831-0200", "name": "M &amp; D PHARMACY, LLC", "zip": "10027", "address": "17 WEST 125TH ST, NEW YORK,NY 10027"}, {"id": "20222", "phone": "(212) 722-3200", "name": "MADISON AVENUE PHARMACY INC.", "zip": "10029", "address": "1407 MADISON AVE., NEW YORK,NY 10029"}, {"id": "20466", "phone": "(212) 996-9499", "name": "MADISON CHEMIST, INC", "zip": "10029", "address": "1412 MADISON AVE., NEW YORK,NY 10029"}, {"id": "24861", "phone": "(212) 385-6775", "name": "MADISON DRUGS INC.", "zip": "10002", "address": "36 GOUVERNEUR ST., NEW YORK,NY 10002"}, {"id": "27411", "phone": "(212) 279-3232", "name": "MAIL MED CORP.", "zip": "10001", "address": "11 PENN PLAZA, NEW YORK,NY 10001"}, {"id": "30598", "phone": "(646) 918-7363", "name": "MAKSOUD RX CORP.", "zip": "10017", "address": "800 2ND AVE, NEW YORK,NY 10017"}, {"id": "25096", "phone": "(212) 722-1550", "name": "MALCOLM PHARMACY,INC.", "zip": "10026", "address": "160 LENOX AVE., NEW YORK,NY 10026"}, {"id": "27852", "phone": "(212) 281-7408", "name": "MALCOLM X PHARMACY CORP.", "zip": "10037", "address": "523 LENOX AVE, NEW YORK,NY 10037"}, {"id": "26778", "phone": "(212) 665-6007", "name": "MANAV II INC.", "zip": "10026", "address": "449 W 125TH STREET, NEW YORK,NY 10026"}, {"id": "31285", "phone": "(212) 233-2833", "name": "MANHATTAN CHINATOWN PHARMACY INC.", "zip": "10013", "address": "156 CANAL STREET, NEW YORK,NY 10013"}, {"id": "28829", "phone": "(212) 222-3576", "name": "MANHATTANVILLE PHARMACY INC.", "zip": "10027", "address": "567 W. 125TH ST., STORE #2, NEW YORK,NY 10027"}, {"id": "20841", "phone": "(212) 941-6480", "name": "MANNINGS PHARMACY CORPORATION", "zip": "10013", "address": "13-17 ELIZABETH ST., NEW YORK,NY 10013"}, {"id": "28803", "phone": "(212) 569-1230", "name": "MANNYRX, INC.", "zip": "10034", "address": "4953 BROADWAY, NEW YORK,NY 10034"}, {"id": "19327", "phone": "(212) 744-4144", "name": "MATLAND PHARMACY CORP.", "zip": "10021", "address": "1142 LEXINGTON AVENUE, NEW YORK,NY 10021"}, {"id": "27755", "phone": "(212) 534-7700", "name": "MAXWELL PHARMACY INC", "zip": "10029", "address": "234 EAST 106TH ST, NEW YORK,NY 10029"}, {"id": "27286", "phone": "(212) 386-9886", "name": "MEDIEXPRESS PHARMACY CORP.", "zip": "10002", "address": "78 CLINTON STREET, NEW YORK,NY 10002"}, {"id": "23258", "phone": "(212) 571-2888", "name": "MEDILANE PHARMACY CORP.", "zip": "10002", "address": "204 CLINTON ST., NEW YORK,NY 10002"}, {"id": "20043", "phone": "(212) 267-5670", "name": "MEDPHARM DRUG &amp; TRADING, INC.", "zip": "10038", "address": "61 CATHERINE ST., NEW YORK,NY 10038"}, {"id": "27613", "phone": "(212) 568-1300", "name": "MELBRAN DRUGS, INC.", "zip": "10032", "address": "605 WEST 168TH ST, NEW YORK,NY 10032"}, {"id": "22914", "phone": "(212) 568-5511", "name": "MELLAU PHARMACY INC.", "zip": "10033", "address": "593 FT. WASHINGTON AVE., NEW YORK,NY 10033"}, {"id": "24928", "phone": "(212) 627-7315", "name": "METRO DRUGS 14TH ST. CORP.", "zip": "10011", "address": "7 WEST 14TH ST., NEW YORK,NY 10011"}, {"id": "21108", "phone": "(212) 794-7200", "name": "METRO DRUGS 3RD AVE. CORP.", "zip": "10021", "address": "931 LEXINGTON AVE., NEW YORK,NY 10021"}, {"id": "24340", "phone": "(212) 982-7325", "name": "METRO DRUGS 8TH ST. CORP.", "zip": "10003", "address": "13 EAST 8TH STREET, NEW YORK,NY 10003"}, {"id": "30864", "phone": "(212) 608-8889", "name": "METROCARE RX , INC.", "zip": "10002", "address": "59 EAST BROADWAY, NEW YORK,NY 10002"}, {"id": "21451", "phone": "(212) 219-8668", "name": "METROPHARM INC.", "zip": "10013", "address": "92 BAXTER ST., B2, NEW YORK,NY 10013"}, {"id": "24128", "phone": "(212) 831-1000", "name": "METROPOLITAN PHARMACY INC.", "zip": "10029", "address": "1982 2ND AVENUE, NEW YORK,NY 10029"}, {"id": "25071", "phone": "(212) 253-7459", "name": "METROPOLITAN PHARMACY SERVICES INC.", "zip": "10012", "address": "532 LAGUARDIA PLACE, SUITE 313, NEW YORK,NY 10012"}, {"id": "29513", "phone": "(212) 213-2444", "name": "MIDTOWN EAST PHARMACY &amp; SURGICAL LLC", "zip": "10016", "address": "161 MADISON AVE., NEW YORK,NY 10016"}, {"id": "21250", "phone": "(212) 877-6390", "name": "MNK PHARMACY INC.", "zip": "10023", "address": "181 AMSTERDAM AVE., NEW YORK,NY 10023"}, {"id": "30741", "phone": "(646) 559-1515", "name": "MNS PHARMACY CORP", "zip": "10032", "address": "2201 AMSTERDAM AVENUE, #B2, NEW YORK,NY 10032"}, {"id": "29737", "phone": "(718) 369-6100", "name": "MODERN CHEMIST, LLC, THE", "zip": "11215", "address": "189 7TH AVENUE, NEW YORK,NY 11215"}, {"id": "16840", "phone": "(212) 662-0220", "name": "MORNINGSIDE PHARMACY, INC.", "zip": "10027", "address": "3181 BROADWAY, NEW YORK,NY 10027"}, {"id": "3972", "phone": "(212) 247-1538", "name": "MORRIS PHARMACY INC.", "zip": "10019", "address": "1419 AVE. OF THE AMERICAS, NEW YORK,NY 10019"}, {"id": "29095", "phone": "(212) 543-2333", "name": "MSSC PHARMACY INC.", "zip": "10040", "address": "4407 BROADWAY, NEW YORK,NY 10040"}, {"id": "29587", "phone": "(212) 942-0202", "name": "NAGLE PHARMACY INC.", "zip": "10034", "address": "220 NAGLE AVE., STORE #8, NEW YORK,NY 10034"}, {"id": "24849", "phone": "(212) 807-0950", "name": "NAMDOR INC.", "zip": "10011", "address": "227 9TH AVE., NEW YORK,NY 10011"}, {"id": "28785", "phone": "(212) 251-0052", "name": "NAMDOR INC.", "zip": "10016", "address": "460 THIRD AVE., NEW YORK,NY 10016"}, {"id": "31489", "phone": "", "name": "NATES PHARMACY CORP", "zip": "10003", "address": "205 THIRD AVE, NEW YORK,NY 10003, "}, {"id": "28288", "phone": "(212) 545-9393", "name": "NATURES CURE PHARMACY INC.", "zip": "10016", "address": "324 EAST 34TH ST, NEW YORK,NY 10016"}, {"id": "31526", "phone": "(212) 228-7900", "name": "NATURES FIRST PHARMACY CORP.", "zip": "10003", "address": "313 1ST AVE., NEW YORK,NY 10003"}, {"id": "18173", "phone": "(212) 865-9700", "name": "NEW AMSTERDAM DRUG MART, INC.", "zip": "10025", "address": "698 AMSTERDAM AVE., NEW YORK,NY 10025"}, {"id": "8530", "phone": "(212) 243-4987", "name": "NEW LONDON PHARMACY INC.", "zip": "10011", "address": "246 8TH AVE., NEW YORK,NY 10011"}, {"id": "31135", "phone": "(212) 987-0700", "name": "NEW YORK HEALTH FIRST PHARMACY INC.", "zip": "10029", "address": "2021 1ST AVENUE, NEW YORK,NY 10029"}, {"id": "27143", "phone": "(212) 219-3287", "name": "NEW YORK PHARMACY, INC.", "zip": "10013", "address": "131 WALKER ST., NEW YORK,NY 10013"}, {"id": "28337", "phone": "(212) 838-3606", "name": "NEW YORK RX, INC.", "zip": "10022", "address": "875 THIRD AVE, 2ND FLOOR M105, NEW YORK,NY 10022"}, {"id": "9930", "phone": "(212) 923-7617", "name": "NEWMAN-LYMAN DRUG CO., INC.", "zip": "10032", "address": "3901 BROADWAY, NEW YORK,NY 10032"}, {"id": "26068", "phone": "(212) 678-0084", "name": "NIHAR CORP.", "zip": "10025", "address": "850 AMSTERDAM AVE., NEW YORK,NY 10025"}, {"id": "22821", "phone": "(212) 473-4166", "name": "NKS PHARMACY INC.", "zip": "10003", "address": "50 UNIVERSITY PLACE, NEW YORK,NY 10003"}, {"id": "26627", "phone": "(212) 567-1331", "name": "NMS DRUGS INC.", "zip": "10040", "address": "199 DYCKMAN STREET, NEW YORK,NY 10040"}, {"id": "31924", "phone": "(212) 226-1415", "name": "NOLITA DRUG CORPORATION", "zip": "10012", "address": "208 MOTT ST., NEW YORK,NY 10012"}, {"id": "31731", "phone": "(212) 426-6200", "name": "NORTH STAR PHARMACY INC.", "zip": "10035", "address": "2253 3RD AVE., NEW YORK,NY 10035"}, {"id": "29549", "phone": "", "name": "NUCARE PHARMACY INC.", "zip": "10128", "address": "1789 1ST AVE., NEW YORK,NY 10128, "}, {"id": "29957", "phone": "(212) 462-2525", "name": "NUCARE PHARMACY WEST, LLC", "zip": "10001", "address": "250 NINTH AVE., NEW YORK,NY 10001"}, {"id": "21653", "phone": "(212) 983-8291", "name": "NUTRI-PHARMA INC.", "zip": "10017", "address": "6 EAST 46TH STREET, NEW YORK,NY 10017"}, {"id": "24531", "phone": "(212) 253-8686", "name": "NY FIRST AVE. CORPORATION", "zip": "10009", "address": "206 FIRST AVE., NEW YORK,NY 10009"}, {"id": "31627", "phone": "", "name": "NYC CHELSEA PHARMACY INC.", "zip": "10011", "address": "215 WEST 14TH ST., NEW YORK,NY 10011, "}, {"id": "25666", "phone": "(212) 289-8082", "name": "NYC PHARMACY INC.", "zip": "10035", "address": "203 EAST 121ST STREET, STORE #2, NEW YORK,NY 10035"}, {"id": "16198", "phone": "(212) 486-9543", "name": "NYCO DRUGS, INC.", "zip": "10022", "address": "485 MADISON AVE., NEW YORK,NY 10022"}, {"id": "29889", "phone": "(646) 368-9960", "name": "OLIVE TREE PHARMACY LLC", "zip": "10002", "address": "106 RIDGE ST., NEW YORK,NY 10002"}, {"id": "28220", "phone": "(212) 234-4666", "name": "OMEGA PHARMACY, INC", "zip": "10027", "address": "1439 AMSTERDAM AVE., NEW YORK,NY 10027"}, {"id": "24844", "phone": "(212) 567-3384", "name": "ONE SOURCE PHARMACY SERVICES INC.", "zip": "10040", "address": "4480 BROADWAY, NEW YORK,NY 10040"}, {"id": "30018", "phone": "(212) 877-0888", "name": "P DRUGS INC.", "zip": "10024", "address": "2345 BROADWAY, NEW YORK,NY 10024"}, {"id": "27539", "phone": "(212) 283-2136", "name": "PALACE PHARMACY INC", "zip": "10037", "address": "543 LENOX AVENUE, NEW YORK,NY 10037"}, {"id": "26165", "phone": "(212) 240-2312", "name": "PANCARE PHARMACY, INC.", "zip": "10013", "address": "22 BOWERY, NEW YORK,NY 10013"}, {"id": "17867", "phone": "(212) 289-5866", "name": "PARK AVENUE CHEMISTS LTD.", "zip": "10028", "address": "1080 PARK AVE., NEW YORK,NY 10028"}, {"id": "21645", "phone": "(212) 685-0500", "name": "PARK IRMAT DRUG CORP.", "zip": "10016", "address": "2 PARK AVE., NEW YORK,NY 10016"}, {"id": "29148", "phone": "(212) 795-3033", "name": "PARVJAYRON CORP.", "zip": "10032", "address": "1329 ST. NICHOLAS AVE, NEW YORK,NY 10032"}, {"id": "27057", "phone": "(212) 281-3480", "name": "PATHMARK STORES, INC.", "zip": "10039", "address": "300 WEST 145TH STREET, NEW YORK,NY 10039"}, {"id": "17977", "phone": "(212) 227-3520", "name": "PATHMARK STORES, INC.", "zip": "10002", "address": "237-239 CHERRY ST., NEW YORK,NY 10002"}, {"id": "23710", "phone": "(212) 722-9156", "name": "PATHMARK STORES, INC.", "zip": "10035", "address": "160 EAST 125TH STREET, NEW YORK,NY 10035"}, {"id": "31066", "phone": "(212) 544-0020", "name": "PAYLESS RX PHARMACY, INC.", "zip": "10034", "address": "567 WEST 207TH ST., NEW YORK,NY 10034"}, {"id": "26608", "phone": "(212) 222-6388", "name": "PD ENTERPRISES INC.", "zip": "10025", "address": "909 COLUMBUS AVENUE, NEW YORK,NY 10025"}, {"id": "27713", "phone": "(212) 388-0888", "name": "PEOPLE CHOICE PHARMACY INC", "zip": "10002", "address": "527 GRAND STREET, NEW YORK,NY 10002"}, {"id": "30356", "phone": "(212) 942-8785", "name": "PERSONAL PHARMACY INC.", "zip": "10034", "address": "4873 BROADWAY, NEW YORK,NY 10034"}, {"id": "25831", "phone": "(212) 873-8838", "name": "PETER'S PHARMACY AND VITAMINS INC.", "zip": "10025", "address": "652 AMSTERDAM AVE., NEW YORK,NY 10025"}, {"id": "29301", "phone": "(212) 862-0505", "name": "PHARMA CARE INC.", "zip": "10030", "address": "2454 ADAM CLAYTON, POWELL BLVD, NEW YORK,NY 10030"}, {"id": "25603", "phone": "(212) 696-2044", "name": "PHARMACARE SERVICES INC.", "zip": "10016", "address": "483 FIRST AVE., NEW YORK,NY 10016"}, {"id": "21547", "phone": "(212) 513-1344", "name": "PHARMACO, INC.", "zip": "10013", "address": "216B CANAL ST., NEW YORK,NY 10013"}, {"id": "25584", "phone": "(212) 343-1252", "name": "PHARMAX INC.", "zip": "10013", "address": "207 GRAND ST., NEW YORK,NY 10013"}, {"id": "15678", "phone": "(212) 755-4244", "name": "POLLOCK-BAILEY APOTHECARY, LTD.", "zip": "10022", "address": "405 EAST 57TH STREET, NEW YORK,NY 10022"}, {"id": "24680", "phone": "(212) 368-3777", "name": "PRANAYA PHARMACY, INC.", "zip": "10037", "address": "586 LENOX AVENUE, NEW YORK,NY 10037"}, {"id": "30587", "phone": "(212) 941-7900", "name": "PRIME ESSENTIALS LLC", "zip": "10013", "address": "345 BROADWAY, NEW YORK,NY 10013"}, {"id": "27558", "phone": "(212) 628-1110", "name": "PRO + LIFE APOTHECARY CORP.", "zip": "10021", "address": "1235 1ST AVE, NEW YORK,NY 10021"}, {"id": "24813", "phone": "(212) 807-8798", "name": "PROCARE PHARMACY, L.L.C", "zip": "10011", "address": "126 EIGHTH AVE., NEW YORK,NY 10011"}, {"id": "19202", "phone": "(212) 254-7760", "name": "PROCARE PHARMACY, L.L.C", "zip": "10003", "address": "138 SECOND AVE., NEW YORK,NY 10003"}, {"id": "24572", "phone": "(212) 445-0932", "name": "PROCARE PHARMACY, L.L.C.", "zip": "10019", "address": "892 9TH AVE., NEW YORK,NY 10019"}, {"id": "24569", "phone": "(212) 684-8300", "name": "PROHEALTH PHARMACY, INC.", "zip": "10010", "address": "385 A/B SECOND AVENUE, NEW YORK,NY 10010"}, {"id": "21514", "phone": "(212) 877-3480", "name": "R.G. DRUG CORP.", "zip": "10024", "address": "2201 BROADWAY, NEW YORK,NY 10024"}, {"id": "27675", "phone": "(212) 369-0700", "name": "R.O.R. MADISON PHARMACY, INC", "zip": "10029", "address": "1636 MADISON AVE, NEW YORK,NY 10029"}, {"id": "24636", "phone": "(212) 304-0649", "name": "RAM PHARMACY INC", "zip": "10040", "address": "146 NAGLE AVENUE, NEW YORK,NY 10040"}, {"id": "15725", "phone": "(212) 684-0090", "name": "RAPHAEL DRUG AND HEALTH, LTD.", "zip": "10001", "address": "1257 BROADWAY, NEW YORK,NY 10001"}, {"id": "17020", "phone": "(212) 348-2117", "name": "RAYSOL DRUGS INC.", "zip": "10029", "address": "1870 LEXINGTON AVE., NEW YORK,NY 10029"}, {"id": "27146", "phone": "(212) 227-5227", "name": "RDS PHARMACY, INC.", "zip": "10002", "address": "225 MADISON ST., NEW YORK,NY 10002"}, {"id": "19388", "phone": "(212) 529-7115", "name": "RITE AID DRUG PALACE, INC.", "zip": "10002", "address": "408 GRAND STREET, NEW YORK,NY 10002"}, {"id": "26806", "phone": "(212) 795-3218", "name": "RITE AID OF NEW YORK, INC.", "zip": "10032", "address": "1033 ST. NICHOLAS AVE., NEW YORK,NY 10032"}, {"id": "22625", "phone": "(212) 222-5824", "name": "RITE AID OF NEW YORK, INC.", "zip": "10025", "address": "2551 BROADWAY, NEW YORK,NY 10025"}, {"id": "22823", "phone": "(212) 727-9620", "name": "RITE AID OF NEW YORK, INC.", "zip": "10011", "address": "188 9TH AVE., NEW YORK,NY 10011"}, {"id": "22282", "phone": "(212) 961-1246", "name": "RITE AID OF NEW YORK, INC.", "zip": "10027", "address": "309 WEST 125TH ST, NEW YORK,NY 10027"}, {"id": "23017", "phone": "(212) 665-6200", "name": "RITE AID OF NEW YORK, INC.", "zip": "10025", "address": "2712 BROADWAY, NEW YORK,NY 10025"}, {"id": "22972", "phone": "(212) 727-3720", "name": "RITE AID OF NEW YORK, INC.", "zip": "10011", "address": "501 6TH AVE., NEW YORK,NY 10011"}, {"id": "22858", "phone": "(212) 281-2183", "name": "RITE AID OF NEW YORK, INC.", "zip": "10031", "address": "3539 BROADWAY, NEW YORK,NY 10031"}, {"id": "24241", "phone": "(212) 247-8384", "name": "RITE AID OF NEW YORK, INC.", "zip": "10019", "address": "301 WEST 50TH ST., NEW YORK,NY 10019"}, {"id": "22811", "phone": "(212) 663-3135", "name": "RITE AID OF NEW YORK, INC.", "zip": "10025", "address": "2833 BROADWAY, NEW YORK,NY 10025"}, {"id": "22466", "phone": "(212) 727-3854", "name": "RITE AID OF NEW YORK, INC.", "zip": "10001", "address": "282 8TH AVENUE, NEW YORK,NY 10001"}, {"id": "22305", "phone": "(212) 942-1883", "name": "RITE AID OF NEW YORK, INC.", "zip": "10034", "address": "546-558 WEST 207TH ST, NEW YORK,NY 10034"}, {"id": "22672", "phone": "(212) 979-2455", "name": "RITE AID OF NEW YORK, INC.", "zip": "10009", "address": "516 E. 14TH ST. & AVE. A, NEW YORK,NY 10009"}, {"id": "24267", "phone": "(212) 828-1772", "name": "RITE AID OF NEW YORK, INC.", "zip": "10027", "address": "35-45 WEST 125TH ST., NEW YORK,NY 10027"}, {"id": "23663", "phone": "(212) 534-9781", "name": "RITE AID OF NEW YORK, INC.", "zip": "10035", "address": "2155 THIRD AVE., NEW YORK,NY 10035"}, {"id": "22859", "phone": "(212) 327-4757", "name": "RITE AID OF NEW YORK, INC.", "zip": "10021", "address": "1535 2ND. AVE., NEW YORK,NY 10021"}, {"id": "24248", "phone": "(212) 213-9887", "name": "RITE AID OF NEW YORK, INC.", "zip": "10016", "address": "542-576 SECOND AVE., NEW YORK,NY 10016"}, {"id": "24385", "phone": "(917) 521-7814", "name": "RITE AID OF NEW YORK, INC.", "zip": "10033", "address": "1510 ST NICHOLAS AVE, NEW YORK,NY 10033"}, {"id": "24606", "phone": "(212) 972-8052", "name": "RITE AID OF NEW YORK, INC.", "zip": "10017", "address": "26 GRAND CENTRAL TERMINAL, NEW YORK,NY 10017"}, {"id": "22581", "phone": "(212) 675-1697", "name": "RITE AID OF NEW YORK, INC.", "zip": "10011", "address": "56 SEVENTH AVE & 14TH ST, NEW YORK,NY 10011"}, {"id": "22817", "phone": "(212) 388-9348", "name": "RITE AID OF NEW YORK, INC.", "zip": "10003", "address": "81 1ST. AVE., NEW YORK,NY 10003"}, {"id": "27261", "phone": "(212) 360-5530", "name": "RITE AID OF NEW YORK, INC.", "zip": "10029", "address": "1951 1ST. AVE., NEW YORK,NY 10029"}, {"id": "27687", "phone": "(212) 791-5396", "name": "RITE AID OF NEW YORK, INC.", "zip": "10033", "address": "4188 BROADWAY, NEW YORK,NY 10033"}, {"id": "22619", "phone": "(212) 569-2512", "name": "RITE AID OF NEW YORK, INC.", "zip": "10034", "address": "4910 BROADWAY, NEW YORK,NY 10034"}, {"id": "22618", "phone": "(212) 787-2903", "name": "RITE AID OF NEW YORK, INC.", "zip": "10023", "address": "210-20 AMSTERDAM AVE., NEW YORK,NY 10023"}, {"id": "23206", "phone": "(212) 828-8664", "name": "RITE AID OF NEW YORK, INC.", "zip": "10128", "address": "1849 2ND AVE., NEW YORK,NY 10128"}, {"id": "22660", "phone": "(212) 316-0436", "name": "RITE AID OF NEW YORK, INC.", "zip": "10025", "address": "741 COLUMBUS AVE., NEW YORK,NY 10025"}, {"id": "23757", "phone": "(212) 791-5795", "name": "RITE AID OF NEW YORK, INC.", "zip": "10038", "address": "7 MADISON ST., NEW YORK,NY 10038"}, {"id": "27138", "phone": "(212) 666-3013", "name": "RITE AID OF NEW YORK, INC.", "zip": "10026", "address": "2170 FREDERICK DOUGLASS, BLVD., NEW YORK,NY 10026"}, {"id": "24613", "phone": "(212) 928-2550", "name": "RITE AID OF NEW YORK, INC.", "zip": "10032", "address": "4046 BROADWAY, NEW YORK,NY 10032"}, {"id": "22369", "phone": "(212) 475-5315", "name": "RITE AID OF NEW YORK, INC.", "zip": "10009", "address": "87-89 AVENUE D, NEW YORK,NY 10009"}, {"id": "24542", "phone": "(646) 486-1048", "name": "RITE AID OF NEW YORK, INC.", "zip": "10014", "address": "534 HUDSON ST., NEW YORK,NY 10014"}, {"id": "29922", "phone": "(212) 348-3341", "name": "RITE HOPE PHARMACY INC.", "zip": "10035", "address": "1793A MADISON AVE., NEW YORK,NY 10035"}, {"id": "26816", "phone": "(212) 491-5500", "name": "RIVERSIDE PHARMACY INC.", "zip": "10039", "address": "2920 8TH AVENUE, NEW YORK,NY 10039"}, {"id": "30384", "phone": "(212) 491-5500", "name": "RIVERSIDE SRX INC.", "zip": "10039", "address": "2920 FREDERICK DOUGLAS, BLVD., NEW YORK,NY 10039"}, {"id": "22229", "phone": "(212) 477-3100", "name": "RIVINGTON HOUSE HEALTH CARE FACILITY", "zip": "10002", "address": "45 RIVINGTON ST., NEW YORK,NY 10002"}, {"id": "21483", "phone": "(212) 682-2817", "name": "ROBELEN CHEMISTS, INC.", "zip": "10017", "address": "100 PARK AVE., NEW YORK,NY 10017"}, {"id": "14934", "phone": "(212) 755-6632", "name": "RON-AN PHARMACY, INC.", "zip": "10028", "address": "988 FIRST AVENUE, NEW YORK,NY 10028"}, {"id": "25087", "phone": "(212) 923-2412", "name": "ROSA PHARMACY, INC.", "zip": "10040", "address": "1603 ST. NICHOLAS AVE., NEW YORK,NY 10040"}, {"id": "29790", "phone": "(212) 996-0055", "name": "ROYAL CARE PHARMACY, INC.", "zip": "10029", "address": "127 EAST 110TH STREET, NEW YORK,NY 10029"}, {"id": "31549", "phone": "", "name": "ROYAL DRUGS CORP", "zip": "10034", "address": "5030 BROADWAY, NEW YORK,NY 10034, "}, {"id": "29272", "phone": "(212) 568-2246", "name": "RVK PHARMACY, LTD.", "zip": "10034", "address": "170 DYCKMAN ST., NEW YORK,NY 10034"}, {"id": "19566", "phone": "(212) 289-8839", "name": "RX 2000, INC.", "zip": "10035", "address": "2325 FIRST AVE., NEW YORK,NY 10035"}, {"id": "30058", "phone": "(212) 368-5800", "name": "RX NOW II, INC.", "zip": "10037", "address": "565 LENOX AVE., NEW YORK,NY 10037"}, {"id": "29081", "phone": "(212) 368-3759", "name": "RX NOW INC.", "zip": "10031", "address": "1728 AMSTERDAM AVE, NEW YORK,NY 10031"}, {"id": "22511", "phone": "(212) 274-0009", "name": "RX PLUS PHARMACY CORP.", "zip": "10002", "address": "289 GRAND ST., NEW YORK,NY 10002"}, {"id": "29680", "phone": "(212) 678-0084", "name": "RYAN DRUGS, LLC", "zip": "10025", "address": "850 AMSTERDAM AVENUE, NEW YORK,NY 10025"}, {"id": "24760", "phone": "(212) 928-6342", "name": "S &amp; J PHARMACY CORP.", "zip": "10032", "address": "3921 BROADWAY, NEW YORK,NY 10032"}, {"id": "17959", "phone": "(212) 926-2801", "name": "S &amp; Y DRUG, INC.", "zip": "10031", "address": "1714 AMSTERDAM AVE., NEW YORK,NY 10031"}, {"id": "31674", "phone": "(212) 942-0202", "name": "S H DRUGS INC.", "zip": "10034", "address": "220 NAGLE AVENUE, NEW YORK,NY 10034"}, {"id": "24776", "phone": "(212) 727-7979", "name": "S.B.P. PHARMACY CORP.", "zip": "10014", "address": "312 W. 14TH ST., NEW YORK,NY 10014"}, {"id": "30989", "phone": "(212) 567-1448", "name": "SANTA ISABEL PHARMACY INC.", "zip": "10034", "address": "145 SHERMAN AVE., NEW YORK,NY 10034"}, {"id": "25342", "phone": "(212) 534-2849", "name": "SB PHARMACY, INC.", "zip": "10035", "address": "27-29 EAST 124TH ST., NEW YORK,NY 10035"}, {"id": "24737", "phone": "(212) 534-1939", "name": "SBV PHARMACY CORP.", "zip": "10029", "address": "217 EAST 106TH ST., NEW YORK,NY 10029"}, {"id": "26821", "phone": "(212) 876-8300", "name": "SECOND AVE PHARMACY INC.", "zip": "10029", "address": "249 EAST 115TH STREET, NEW YORK,NY 10029"}, {"id": "4177", "phone": "(212) 473-1587", "name": "SECOND AVE. CHEMISTS INC.", "zip": "10003", "address": "101 SECOND AVE., NEW YORK,NY 10003"}, {"id": "30275", "phone": "(212) 255-6100", "name": "SEVENTH ELM DRUG CORP", "zip": "10011", "address": "56 SEVENTH AVE., NEW YORK,NY 10011"}, {"id": "22714", "phone": "(212) 795-1795", "name": "SHREE NATH PHARMACY CORP.", "zip": "10040", "address": "1576 ST. NICHOLAS AVE., NEW YORK,NY 10040"}, {"id": "26316", "phone": "(212) 234-7959", "name": "SHRINEETA PHARMACY INC.", "zip": "10031", "address": "1743 AMSTERDAM AVE., NEW YORK,NY 10031"}, {"id": "31567", "phone": "(212) 996-5929", "name": "SKYLINE PHARMACY INC.", "zip": "10020", "address": "2123 2ND AVE., NEW YORK,NY 10020"}, {"id": "31978", "phone": "(212) 398-9999", "name": "SMART PHARMACY INC.", "zip": "10018", "address": "55 WEST 39TH STREET, NEW YORK,NY 10018"}, {"id": "22261", "phone": "(212) 567-2753", "name": "SMS PHARMACY CORP.", "zip": "10034", "address": "101 SHERMAN AVE., NEW YORK,NY 10034"}, {"id": "27473", "phone": "(212) 740-8500", "name": "SR PHARMACY INC", "zip": "10033", "address": "4329 BROADWAY, NEW YORK,NY 10033"}, {"id": "31103", "phone": "(212) 304-3949", "name": "SSS PHARMACY INC.", "zip": "10040", "address": "66 NAGLE AVENUE, NEW YORK,NY 10040"}, {"id": "30198", "phone": "(212) 604-1970", "name": "ST. LUKE'S ROOSEVELT HOSPITAL CENTER", "zip": "10011", "address": "230 WEST 17TH ST 8TH FLR, NEW YORK,NY 10011"}, {"id": "31005", "phone": "(212) 304-4541", "name": "ST. THERESA PHARMACY CORP", "zip": "10034", "address": "3849 10TH AVE., NEW YORK,NY 10034"}, {"id": "31765", "phone": "", "name": "STANLEY'S PHARMACY INC.", "zip": "10002", "address": "31 LUDLOW STREET, NEW YORK,NY 10002, "}, {"id": "26505", "phone": "(212) 283-7200", "name": "SVR INC.", "zip": "10039", "address": "159-12 HARLEM RIVER DRIVE, NEW YORK,NY 10039"}, {"id": "30720", "phone": "(212) 665-8880", "name": "SY PHARMACY INC.", "zip": "10026", "address": "215 WEST 116TH STREET, NEW YORK,NY 10026"}, {"id": "28756", "phone": "(212) 289-2000", "name": "TAINO STAR PHARMACY, INC.", "zip": "10035", "address": "2403 2ND AVE., NEW YORK,NY 10035"}, {"id": "18765", "phone": "(212) 360-6969", "name": "TARIQ, NAJMUT &amp; SADEQUIN, MOHAMMAD", "zip": "10029", "address": "RAHMAN, MOHAMMED TARIQUR, CROSS COUNTY PHARMACY, 1514 MADISON AVE., NEW YORK,NY 10029"}, {"id": "4240", "phone": "(212) 877-3090", "name": "TEE VAL PHARMACY, INC.", "zip": "10023", "address": "104 W. 70TH STREET, NEW YORK,NY 10023"}, {"id": "30846", "phone": "(212) 837-2692", "name": "THIRD AVE PHARMACY INC.", "zip": "10035", "address": "2240 3RD AVE., NEW YORK,NY 10035"}, {"id": "21243", "phone": "(212) 447-6111", "name": "THIRD AVE. PHARMACY &amp; SURGICALS, INC.", "zip": "10016", "address": "550 THIRD AVE., NEW YORK,NY 10016"}, {"id": "23429", "phone": "(212) 369-6075", "name": "THIRD AVE. PRESCRIPTION CENTER, INC.", "zip": "10029", "address": "2032 THIRD AVENUE, NEW YORK,NY 10029"}, {"id": "29197", "phone": "(212) 535-7100", "name": "THIRD AVENUE DRUG CORP", "zip": "10021", "address": "1449 1ST AVENUE, NEW YORK,NY 10021"}, {"id": "26361", "phone": "(212) 750-4100", "name": "THIRD AVENUE LERMAN PHARMACEUTICS, INC.", "zip": "10021", "address": "1025-A THIRD AVE., NEW YORK,NY 10021"}, {"id": "22429", "phone": "(212) 877-7340", "name": "THOMAS DRUGS, INC.", "zip": "10023", "address": "171 COLUMBUS AVE., NEW YORK,NY 10023"}, {"id": "22226", "phone": "(212) 598-9790", "name": "THOMPSON CHEMISTS INC.", "zip": "10012", "address": "137 THOMPSON ST., NEW YORK,NY 10012"}, {"id": "28807", "phone": "(212) 956-1100", "name": "THRIFTWAY 10TH AVE. DRUG CORP.", "zip": "10036", "address": "646 TENTH AVENUE, NEW YORK,NY 10036"}, {"id": "19846", "phone": "(212) 766-1942", "name": "THRIFTWAY BEEKMAN PHARMACY, INC.", "zip": "10038", "address": "19 BEEKMAN ST., NEW YORK,NY 10038"}, {"id": "17119", "phone": "(212) 838-6450", "name": "TIMMERMANN APOTHECARIES, INC.", "zip": "10065", "address": "799 LEXINGTON AVENUE, NEW YORK,NY 10065"}, {"id": "30789", "phone": "0", "name": "TISANE PHARMACY LLC", "zip": "10028", "address": "340 EAST 86 ST., NEW YORK,NY 10028"}, {"id": "22920", "phone": "(212) 942-8785", "name": "TOTAL HEALTH &amp; BEAUTY PHARMACY INC.", "zip": "10034", "address": "4873 BROADWAY, NEW YORK,NY 10034"}, {"id": "9886", "phone": "(212) 838-1490", "name": "TOWER CHEMISTS INC.", "zip": "10021", "address": "1219 1ST AVE., NEW YORK,NY 10021"}, {"id": "22829", "phone": "(212) 304-9582", "name": "TOWN DRUG AT BROADWAY INC.", "zip": "10034", "address": "4785 BROADWAY, NEW YORK,NY 10034"}, {"id": "28256", "phone": "(212) 749-8480", "name": "TRI PHARMACY CORP.", "zip": "10027", "address": "1219 AMSTERDAM AVENUE, NEW YORK,NY 10027"}, {"id": "17378", "phone": "(212) 228-0764", "name": "TRIGUN PHARMACY INC.", "zip": "10009", "address": "178 AVENUE C., NEW YORK,NY 10009"}, {"id": "23275", "phone": "(212) 305-8684", "name": "TRUSTEES OF COLUMBIA UNIVERSITY IN THE CITY", "zip": "10032", "address": "OF NEW YORK, THE, 161 FT. WASHINGTON AVE, NEW YORK,NY 10032"}, {"id": "27214", "phone": "(212) 219-8998", "name": "TU QUYNH PHARMACY, INC.", "zip": "10013", "address": "230 GRAND STREET, BOOTH A1 AND A2, NEW YORK,NY 10013"}, {"id": "17340", "phone": "(212) 752-5151", "name": "TURTLE BAY CHEMISTS EAST, INC.", "zip": "10017", "address": "901 SECOND AVE., NEW YORK,NY 10017"}, {"id": "30285", "phone": "(212) 927-5570", "name": "TWIN PHARMACY CORP", "zip": "10033", "address": "1538 ST. NICHOLAS AVE., NEW YORK,NY 10033"}, {"id": "29441", "phone": "(212) 343-1517", "name": "TYKA HOLDINGS INC.", "zip": "10013", "address": "173 CANAL ST., NEW YORK,NY 10013"}, {"id": "22526", "phone": "(212) 477-0762", "name": "UMA PHARMACY CORP.", "zip": "10011", "address": "446 6TH AVE., NEW YORK,NY 10011"}, {"id": "24143", "phone": "(212) 766-3773", "name": "UNITED HEALTH PHARMACY INC.", "zip": "10013", "address": "4 ELIZABETH ST., NEW YORK,NY 10013"}, {"id": "30615", "phone": "(212) 694-6666", "name": "UPPER MANHATTAN PHARMACY, INC.", "zip": "10031", "address": "1728 AMSTERDAM AVE, NEW YORK,NY 10031"}, {"id": "27696", "phone": "(212) 923-6000", "name": "UPTOWN PHARMACY &amp; SURGICALS INC.", "zip": "10032", "address": "4027 BROADWAY, NEW YORK,NY 10032"}, {"id": "18488", "phone": "(212) 923-7530", "name": "V.L.V. MED PHARMACY, INC.", "zip": "10032", "address": "4085 BROADWAY, NEW YORK,NY 10032"}, {"id": "21812", "phone": "(212) 757-9335", "name": "VALUE DRUGS ROCK INC.", "zip": "10020", "address": "30 ROCKEFELLER CENTER, NEW YORK,NY 10020"}, {"id": "31131", "phone": "(212) 734-6998", "name": "VBVS PHARMACY INC.", "zip": "10065", "address": "1200 FIRST AVENUE, NEW YORK,NY 10065"}, {"id": "27035", "phone": "(212) 283-9114", "name": "VENKANY, INC.", "zip": "10027", "address": "2452 8TH AVE, NEW YORK,NY 10027"}, {"id": "28454", "phone": "(212) 666-4800", "name": "VENUS PHARMACY &amp; SUPPLIES, CORP.", "zip": "10025", "address": "972 AMSTERDAM AVE, NEW YORK,NY 10025"}, {"id": "28789", "phone": "(212) 923-3524", "name": "VIDA PHARMACY, INC.", "zip": "10040", "address": "1620 ST. NICHOLA AVE., NEW YORK,NY 10040"}, {"id": "17656", "phone": "(212) 807-7566", "name": "VILLAGE APOTHECARY, INC.", "zip": "10014", "address": "346 BLEECKER ST., NEW YORK,NY 10014"}, {"id": "31690", "phone": "(212) 807-7566", "name": "VILLAGE PHARMACY CORP.", "zip": "10014", "address": "346 BLEECKER ST., NEW YORK,NY 10014"}, {"id": "22843", "phone": "(212) 226-8971", "name": "VILLY PHARMACY, INCORPORATED", "zip": "10013", "address": "179 GRAND ST., NEW YORK,NY 10013"}, {"id": "25533", "phone": "(212) 795-4383", "name": "VIM CHEMIST INC.", "zip": "10033", "address": "766 WEST 181ST STREET, NEW YORK,NY 10033"}, {"id": "29888", "phone": "(212) 772-1110", "name": "VITA HEALTH APOTHECARY INC.", "zip": "10028", "address": "1609 2ND AVE., NEW YORK,NY 10028"}, {"id": "19952", "phone": "(212) 923-0077", "name": "VIVA PHARMACY, INC.", "zip": "10033", "address": "1494 ST. NICHOLAS AVE., NEW YORK,NY 10033"}, {"id": "19639", "phone": "(212) 567-5533", "name": "W &amp; Z DRUGS INC.", "zip": "10040", "address": "39 SHERMAN AVE., NEW YORK,NY 10040"}, {"id": "28854", "phone": "(212) 427-3868", "name": "WALGREEN EAST CO., INC", "zip": "10028", "address": "122 EAST 86TH ST, NEW YORK,NY 10028"}, {"id": "28876", "phone": "(212) 696-5081", "name": "WALGREEN EASTERN CO., INC", "zip": "10016", "address": "545 THIRD AVE., NEW YORK,NY 10016"}, {"id": "28943", "phone": "(212) 678-8556", "name": "WALGREEN EASTERN CO., INC", "zip": "10025", "address": "2575 BROADWAY, NEW YORK,NY 10025"}, {"id": "31226", "phone": "(212) 691-9050", "name": "WALGREEN EASTERN CO., INC.", "zip": "10011", "address": "197 8TH AVENUE, NEW YORK,NY 10011"}, {"id": "29477", "phone": "(212) 315-0178", "name": "WALGREEN EASTERN CO., INC.", "zip": "10019", "address": "353 W. 57TH STREET, NEW YORK,NY 10019"}, {"id": "27113", "phone": "(212) 734-6076", "name": "WALGREEN EASTERN CO., INC.", "zip": "10021", "address": "1328 2ND. AVE., NEW YORK,NY 10021"}, {"id": "28397", "phone": "(212) 752-1909", "name": "WALGREEN EASTERN CO., INC.", "zip": "10022", "address": "1000 SECOND AVE., NEW YORK,NY 10022"}, {"id": "25100", "phone": "(212) 677-0054", "name": "WALGREEN EASTERN CO., INC.", "zip": "10003", "address": "145 FOURTH AVE., NEW YORK,NY 10003"}, {"id": "27965", "phone": "(212) 777-0740", "name": "WALGREEN EASTERN CO., INC.", "zip": "10009", "address": "298 1ST AVE, NEW YORK,NY 10009"}, {"id": "29200", "phone": "(212) 302-0552", "name": "WALGREEN EASTERN CO., INC.", "zip": "10036", "address": "1471 BROADWAY, NEW YORK,NY 10036"}, {"id": "28538", "phone": "(212) 861-0291", "name": "WALGREEN EASTERN CO., INC.", "zip": "10065", "address": "1160 THIRD AVENUE, NEW YORK,NY 10065"}, {"id": "25307", "phone": "(212) 868-5659", "name": "WALGREEN EASTERN CO., INC.", "zip": "10118", "address": "350 FIFTH AVE., NEW YORK,NY 10118"}, {"id": "26363", "phone": "(212) 685-1641", "name": "WALGREEN EASTERN CO., INC.", "zip": "10010", "address": "33 EAST 23RD. ST., NEW YORK,NY 10010"}, {"id": "28702", "phone": "(212) 375-0734", "name": "WALGREEN EASTERN CO., INC.", "zip": "10003", "address": "20 ASTOR PLACE, NEW YORK,NY 10003"}, {"id": "30813", "phone": "", "name": "WELLNESS RX PHARMACY INC.", "zip": "10013", "address": "206 GRAND ST., NEW YORK,NY 10013, "}, {"id": "30934", "phone": "(212) 234-8400", "name": "WEST 142ND STREET PHARMACY CORP.", "zip": "10031", "address": "3471 BROADWAY, NEW YORK,NY 10031"}, {"id": "24479", "phone": "(212) 712-0818", "name": "WEST SIDE FAMILY PHARMACY, INC.", "zip": "10024", "address": "592 AMSTERDAM AVENUE, NEW YORK,NY 10024"}, {"id": "30168", "phone": "(212) 234-1800", "name": "WIN PHARMACY CORP", "zip": "10032", "address": "11 EDWARD MORGAN PLACE, NEW YORK,NY 10032"}, {"id": "19881", "phone": "(212) 219-2717", "name": "WING ON PHARMACY, INC.", "zip": "10002", "address": "16-18 EAST BROADWAY, NEW YORK,NY 10002"}, {"id": "17370", "phone": "(212) 737-1280", "name": "WINMARK DRUG, LTD.", "zip": "10021", "address": "1065 LEXINGTON AVE., NEW YORK,NY 10021"}, {"id": "15718", "phone": "(212) 285-0977", "name": "YIN ON PHARMACY, INC.", "zip": "10013", "address": "77 MOTT ST., NEW YORK,NY 10013"}, {"id": "25832", "phone": "(212) 348-7788", "name": "YOUR HEALTH PHARMACY, INC.", "zip": "10029", "address": "76-80 EAST 116TH ST., NEW YORK,NY 10029"}, {"id": "27202", "phone": "(212) 956-6000", "name": "Z CHEMISTS, LLC", "zip": "10019", "address": "40 WEST 57TH STREET, NEW YORK,NY 10019"}, {"id": "19328", "phone": "(212) 737-5560", "name": "ZITOMER PHARMACY INC.", "zip": "10021", "address": "969 MADISON AVE., NEW YORK,NY 10021"}]
